long_name,short_name,area,state,contact,email,url,phone,address
Alaska Railroad Corporation,ARRC,Anchorage,AK,Mr. Patrick Gamble (President and CEO),gamblep@akrr.com,http://www.akrr.com/,(907)265-2414,"327 West Ship Creek Avenue, Anchorage, AK 99510"
Municipality of Anchorage - Public Transportation Department,People Mover,Anchorage,AK,Ms. Jody Karcz (Public Transportation Director),KarczJM@ci.anchorage.ak.us,http://www.peoplemover.org/,(907)343-8402,"3650 A East Tudor Road, Building A, Anchorage, AK 99519"
"VPSI, Anchorage",,Anchorage,AK,Mr Jeffery Hanning (President and CEO),jeff.henning@vpsiinc.com,http://www.vpsiinc.com/,(248)597-3500,"310 K Street Suite 200, Anchorage, AK 99501"
Fairbanks North Star Borough Transit,MACS,Fairbanks,AK,Mr. Glenn Miller (Director),gmiller@co.fairbanks.ak.us,http://www.co.fairbanks.ak.us/,(907)459-1007,"3175 Peger Road, Fairbanks, AK 99709"
Targhee Regional Public Transit Authority,TRPTA,Idaho Falls,ID,Ms. Lynn Seymour (Executive Director),lynntrpta@yahoo.com,http://www.trpta.com/,(208)535-0356,"1810 W. Broadway #7, Idaho Falls, ID 83402"
Valley Regional Transit,VRT,Meridian,ID,Ms. Kelli Fairless (Executive Director),kfairless7@msn.com,http://www.valleyregionaltransit.org/,(208)846-8547 Ext:4212,"830 North Main Street Suite 230, Meridian, ID 83642"
City of Pocatello - Pocatello Regional Transit,PRT,Pocatello,ID,Mr. Ronald Binggeli (Director of Public Transit),rbinggeli@pocatello.us,http://www.pocatellotransit.com/,(208)234-6248,"911 North Seventh, Pocatello, ID 83205"
"City of Bend, Bend Area Transit",BAT,Bend,OR,Ms. Heather Ornelas (Transit Division Manager),hornelas@ci.bend.or.us,http://www.ci.bend.or.us/bend_area_transit/index.html,(541)317-3023,"1250 NE Bear Creek Rd, Bend, OR 97701"
Lane Transit District,LTD,Eugene,OR,Mr. Mark Pangborn (General Manager),mark.pangborn@ltd.org,http://www.ltd.org/,(541)682-6100,"3500 East 17th Avenue, Eugene, OR 97403"
Rogue Valley Transportation District,RVTD,Medford,OR,Ms. Julie Brown (General Manager),j.brown@rvtd.org,http://www.rvtd.org/,(541)779-5821,"3200 Crater Lake Avenue, Medford, OR 97504"
Tri-County Metropolitan Transportation District of Oregon,TriMet,Portland,OR,Mr. Frederic Hansen (General Manager),HansenF@trimet.org,http://www.trimet.org/,(503)962-4831,"4012 Southeast 17th Avenue, Portland, OR 97202"
Salem Area Mass Transit District,Cherriots,Salem,OR,Mr. Allan Pollock (General Manager),pollocka@cherriots.org,http://cherriots.org/,(503)588-2424 Ext:2550,"555 Court Street, N.E. Suite 5230, Salem, OR 97301"
South Metro Area Regional Transit,SMART,Wilsonville,OR,Ms. Cynthia Thompson (Transit Director),cynthia@bcbconsulting.net,http://www.ridesmart.com/,(503)570-1576,"29799 SW Town Center Loop E, Wilsonville, OR 97070"
Whatcom Transportation Authority,WTA,Bellingham,WA,Mr. Richard Walsh (General Manager),richardw@ridewta.com,http://www.ridewta.com/,(360)738-4581,"4111 Bakerview Spur, Bellingham, WA 98226"
Kitsap Transit,,Bremerton,WA,Mr. Richard Hayes (Executive Director),KTExecutive@KitsapTransit.com,http://kitsaptransit.org/,(360)478-6230,"60 Washington Ave. Suite 200, Bremerton, WA 98337"
Skagit Transit,,Burlington,WA,Mr. Dale O'Brien (Executive Director),dobrien@skagittransit.org,http://www.skagittransit.org/,(360)757-8801 Ext:204,"600 County Shop Lane, Burlington, WA 98233"
Everett Transit,ET,Everett,WA,Mr. Thomas Hingson (Transportation Services Director),thingson@ci.everett.wa.us,http://www.everettwa.org/transit/,(425)257-8939,"3225 Cedar Street, Everett, WA 98201"
Snohomish County Public Transportation Benefit Area Corporation,Community Transit,Everett,WA,Ms. Joyce Eleanor (Chief Executive Officer),joyce.Eleanor@commtrans.org,http://www.commtrans.org/,(425)348-7100,"7100 Hardeson Road, Everett, WA 98203"
Community Urban Bus Service,CUBS,Longview,WA,Mr. Robert Gregory (City Manager),bob.gregory@ci.longview.wa.us,http://www.cubs-bus.com/,(360)442-5001,"254 Oregon Way, Longview, WA 98632"
Intercity Transit,I.T.,Olympia,WA,Mr. Michael Harbour (General Manager),mharbour@intercitytransit.com,http://www.intercitytransit.com/,(360)786-8585 Ext:5855,"526 Southeast Pattison Street, Olympia, WA 98507"
Ben Franklin Transit,BFT,Richland,WA,Mr. Tim Fredrickson (General Manager),timjfred@bft.org,http://www.bft.org/,(509)734-5118,"1000 Columbia Park Trail, Richland, WA 99352"
Central Puget Sound Regional Transit Authority,ST,Seattle,WA,Ms. Joni Earl (Executive Director),earlj@soundtransit.org,http://www.soundtransit.org/,(206)398-5450,"401 South Jackson Street, Seattle, WA 98104"
City of Seattle - Seattle Center Monorail Transit,SMS,Seattle,WA,"Mr. Robert Nellams (Director, Seattle Center)",robert.nellams@seattle.gov,http://www.seattlemonorail.com/,(206)684-7330,"305 Harrison Street, Seattle, WA 98109"
King County Department of Transportation - Metro Transit Division,King County Metro,Seattle,WA,"Mr. Kevin Desmond (General Manager, Metro Transit Division)",kevin.desmond@kingcounty.gov,http://transit.metrokc.gov/,(206)684-1619,"201 South Jackson Street M.S. KSC-TR-0333, Seattle, WA 98104"
Washington State Ferries,WSF,Seattle,WA,"Mr. David Moseley (Assistant Secretary, Ferry Division)",MoseleD@wsdot.wa.gov,http://www.wsdot.wa.gov/ferries/index.cfm,(206)515-3401,"2901 Third Avenue, Seattle, WA 98121"
Spokane Transit Authority,STA,Spokane,WA,Ms. E. Susan Meyer (Chief Executive Officer),SMeyer@spokanetransit.com,http://spokanetransit.com/,(509)325-6000,"1230 West Boone Avenue, Spokane, WA 99201"
Pierce County Transportation Benefit Area Authority,Pierce Transit,Tacoma,WA,Ms. Lynne Griffith (Chief Executive Officer),lgriffith@piercetransit.org,http://www.piercetransit.org/,(253)581-8010,"3701 96th Street, S.W., Tacoma, WA 98499"
Pierce County Ferry Operations,Pierce County Ferry,University Place,WA,Mr. Brian Ziegler (Director of Public Works and Utilities),BZIEGLE@co.pierce.wa.us,http://www.co.pierce.wa.us/,(253)798-7250,"9850 - 64th Street West, University Place, WA 98467"
Clark County Public Transportation Benefit Area Authority,C-Tran,Vancouver,WA,Mr. Jeff Hamm (Executive Director/CEO),JeffH@C-TRAN.org,http://www.c-tran.com/,(360)696-4494 Ext:7303,"Vancouver, WA 98668"
Link Transit,,Wenatchee,WA,Mr. Richard DeRock (General Manager),richard@linktransit.com,http://www.linktransit.com/,(509)664-7610,"2700 Euclid Avenue, Wenatchee, WA 98801"
Yakima Transit,YT,Yakima,WA,"Mr. Richard Zais, Jr. (City Manager)",dzais@ci.yakima.wa.us,http://www.yakimatransit.org/,(509)575-6040,"2301 Fruitvale Boulevard, Yakima, WA 98902"
"New Britain Transportation Company, Inc.",,Berlin,CT,Mr. Peter Agostini (President),peter@nbt.bz,http://www.nbtrans.com/,(860)828-0511 Ext:12,"257 Woodlawn Road, Berlin, CT 06037"
Greater Bridgeport Transit Authority,GBTA,Bridgeport,CT,Mr. Ronald Kilcoyne (Chief Executive Officer),rkilcoyne@gogbt.com,http://www.gbtabus.com/,(203)366-7070 Ext:106,"One Cross Street, Bridgeport, CT 06610"
Housatonic Area Regional Transit,HART,Danbury,CT,Mr. Eric Bergstraesser (Executive Director),ericb@hartct.org,http://www.hartct.org/,(203)744-4070 Ext:132,"62 Federal Road, Danbury, CT 06810"
Valley Transit District,VTD,Derby,CT,Mr. Ed Pigman (Executive Director),mpandolfi@valleytransit.org,http://www.valleytransit.org/,(203)735-6824,"41 Main Street, Derby, CT 06418"
The Greater New Haven Transit District,GNHTD,Hamden,CT,Ms. Donna Carter (Executive Director),dcarter@gnhtd.org,http://www.gnhtd.org/,(203)288-6282 Ext:2517,"840 Sherman Avenue, Hamden, CT 06514"
Connecticut Transit - Hartford Division,CTTransit,Hartford,CT,Mr. David Lee (General Manager),dlee@cttransit.com,http://www.cttransit.com/,(860)522-8101 Ext:203,"100 Leibert Road, Hartford, CT 06141"
Connecticut Transit - New Haven Division,CTTRANSIT,Hartford,CT,Mr. David Lee (General Manager),dlee@cttransit.com,http://www.cttransit.com/,(860)522-8101 Ext:203,"100 Leibert Road, Hartford, CT 06141"
Connecticut Transit - Stamford Division,CTTransit,Hartford,CT,Mr. David Lee (General Manager),dlee@cttransit.com,http://www.cttransit.com/,(860)522-8101 Ext:203,"100 Leibert Road, Hartford, CT 06141"
Greater Hartford Transit District,GHTD,Hartford,CT,Ms. Vicki Shotland (Executive Director),vshotland@hartfordtransit.org,http://www.hartfordtransit.org/,(860)247-5329 Ext:3002,"One Union Place, Hartford, CT 06103"
Middletown Transit District,MTD,Middletown,CT,Mr. Thomas Cheeseman (Administrator),tcheeseman@mtdct.org,http://www.middletownareatransit.org/,(860)346-0212,"340 Main Street, Middletown, CT 06457"
Milford Transit District,MTD,Milford,CT,Mr. Henry Jadach (Executive Director),henry@milfordtransit.com,http://www.milfordtransit.com/,(203)874-4507,"259 Research Drive, Milford, CT 06460"
Connecticut Department of Transportation,CDOT,Newington,CT,"Mr. Raymond Godcher (Chief, Fiscal & Administration)",Raymond.Godcher@PO.state.CT.US,http://www.ct.gov/dot,(860)594-2805,"2800 Berlin Turnpike, Newington, CT 06131"
Norwalk Transit District,,Norwalk,CT,Mr. Louis Schulman (Administrator),lschulman@norwalktransit.com,http://www.norwalktransit.com/,(203)299-5160 Ext:163,"275 Wilson Avenue, Norwalk, CT 06854"
Southeast Area Transit,SEAT,Preston,CT,Ms. Ella Bowman (General Manager),ebowman@seatransit.org,http://www.seatbus.com/,(860)886-2631 Ext:104,"21 Route 12, Preston, CT 06365"
"2Plus Partners in Transportation, Inc",2Plus,Rocky Hill,CT,Mr. Byron York (President),byork@2plus.com,http://www.2plus.com/,(860)242-1722 Ext:101,"1800 Silas Deane Highway #305N, Rocky Hill, CT 06067"
"Northeast Transportation Company, Inc.",,Waterbury,CT,Ms. Barbara Kalosky (General Manager-President),bknet6@aol.com,,(203)753-2538,"1717 Thomaston Avenue P.O. Box 4670, Waterbury, CT 06704"
Greater Hartford Ridesharing Corporation - The Rideshare Company,GHRC,Windsor,CT,Mr. Jonathan Colman (President & CEO),jcolman@rideshare.com,http://www.rideshare.com/,(860)692-1222,"100 Corporate Drive Suite 120, Windsor, CT 06095"
Massachusetts Bay Transportation Authority,MBTA,Boston,MA,Mr. WILLIAM MITCHELL (ACTING GENERAL MANAGER ),GM@MBTA.COM,http://www.mbta.com/,(617)222-5176,"10 Park Plaza, Boston, MA 02116"
Brockton Area Transit Authority,BAT,Brockton,MA,Mr. Reinald Ledoux (Administrator),rledoux@ridebat.com,http://www.ridebat.com/,(508)588-1000,"155 Court Street, Brockton, MA 02302"
Montachusett Regional Transit Authority,MART,Fitchburg,MA,Mr. Mohammed Khan (Administrator),mkhan@mrta.us,http://www.mrta.us/,(978)345-7711 Ext:2233,"Rear 1427 Water Street, Fitchburg, MA 01420"
Cape Ann Transportation Authority,CATA,Gloucester,MA,Mr. Paul Talbot (Administrator),ptalbot70@hotmail.com,http://www.canntran.com/,(978)283-1886 Ext:16,"3 Pond Road, Gloucester, MA 01931"
Merrimack Valley Regional Transit Authority,MVRTA,Haverhill,MA,Mr. Joseph Costanzo (Administrator),jcostanzo@mvrta.com,http://www.mvrta.com/,(978)469-1251,"85 Railroad Avenue, Haverhill, MA 01835"
Cape Cod Regional Transit Authority,CCRTA,Hyannis,MA,Mr. Thomas Cahair (Administrator),tcahair@capecoderta.org,http://www.thebreeze.info/,(508)775-8504 Ext:204,"215 Iyannough Road, Route 28, Hyannis, MA 02601"
Lowell Regional Transit Authority,LRTA,Lowell,MA,Mr. James Scanlan (Administrator),jhs1251@aol.com,http://www.lrta.com/,(978)459-0164,"145 Thorndike Street, Lowell, MA 01852"
Southeastern Regional Transit Authority,SRTA,New Bedford,MA,Mr. Joseph Cosentino (Administrator),jcsrta@aol.com,http://www.srtabus.com/,(508)997-6767,"700 Pleasant Street, 1st Floor, New Bedford, MA 02740"
Berkshire Regional Transit Authority,BRTA,Pittsfield,MA,Mr. Gary Shepard (Administrator),gary.shepard@berkshirerta.com,http://www.berkshirerta.com/,(413)499-2782 Ext:48,"One Columbus Avenue, Suite 201, Pittsfield, MA 01201"
Pioneer Valley Transit Authority,PVTA,Springfield,MA,Ms. Mary MacInnes (Administrator),mmacinnes@pvta.com,http://www.pvta.com/,(413)732-6249 Ext:249,"2808 Main Street, Springfield, MA 01107"
Greater Attleboro-Taunton Regional Transit Authority,GATRA,Taunton,MA,Mr. Francis Gay (Administrator),fgay@gatra.org,http://www.gatra.org/,(508)226-1102 Ext:220,"10 Oak Street Second Floor, Taunton, MA 02780"
Worcester Regional Transit Authority,WRTA,Worcester,MA,Mr. Stephen O'Neil (Administrator),soneil@therta.com,http://www.therta.com/,(508)791-2389 Ext:3032,"287 Grove Street, Worcester, MA 01605"
"Western Maine Transportation Services, Inc.",WMTS,Auburn,ME,Mr. Patrick Christian (General Manager),pchristian@westernmainetrans.org,,207-333-6972 Ext:206,"76 Merrow Road, Auburn, ME 04210"
City of Bangor - BAT Community Connector,BAT,Bangor,ME,Mr. Edward Barrett (City Manager),ed.barrett@bangormaine.gov,http://www.bangormaine.gov/,(207)945-4400,"73 Harlow Street, Bangor, ME 04401"
Casco Bay Island Transit District,CBITD,Portland,ME,Ms. Catherine Debo (General Manager),cdebo@cascobaylines.com,http://www.cascobaylines.com/,(207)774-7871 Ext:103,"P.O. BOX 4656, Portland, ME 04112"
Greater Portland Transit District,Metro,Portland,ME,Mr. David Redlefsen (General Manager),dredlef@gpmetrobus.com,http://www.gpmetrobus.com/,(207)774-0351,"114 Valley Street, Portland, ME 04102"
"The Regional Transportation Program, Inc.",RTP,Portland,ME,Mr. Jack DeBeradinis (Acting Executive Director),jackd@rtprides.org,http://www.rtprides.org/,(207)774-2666 Ext:113,"127 St. John Street, Portland, ME 04102"
Northern New England Passenger Rail Authority,NNEPRA,Portland,ME,Ms. Patricia Quinn (Executive Director),patricia@nnepra.com,http://www.amtrakdowneaster.com/,(207)780-1000 Ext:105,"75 West Commercial Street Suite 104, Portland, ME 04101"
Cooperative Alliance for Seacoast Transportation,COAST,Dover,NH,Mr. Rad Nichols (Executive Director),rnichols@coastbus.org,http://www.coastbus.org/,(603)743-5777 Ext:100,"42 Sumner Drive, Dover, NH 03820"
Manchester Transit Authority,MTA,Manchester,NH,Mr. Evan Rosset (Executive Director),erosset@mtabus.org,http://www.mtabus.org/,(603)623-8801 Ext:612,"110 Elm Street, Manchester, NH 03101"
Nashua Transit System,NTS,Nashua,NH,Hon. Donnalee Lozeau (Mayor-City of Nashua),lozeaud@nashuanh.gov,http://www.gonashua.com/,(603)589-3260,"11 Riverside St., Nashua, NH 03062"
Rhode Island Public Transit Authority,RIPTA,Providence,RI,Mr. Alfred Moscola (General Manager),AJMoscola@ripta.com,http://www.ripta.com/,(401)784-9500 Ext:171,"265 Melrose Street, Providence, RI 02907"
Bonanza,BZ,Providence,RI,Mr. Peter Picknelly (President),peter@peterpanbus.com,http://www.bonanzabus.com/,(800)237-8747 Ext:1202,"One Bonanza Way, Providence, RI 02904"
Chittenden County Transportation Authority,CCTA,Burlington,VT,Mr. Christopher Cole (General Manager),ccole@cctaride.org,http://www.cctaride.org/,(802)864-0211,"15 Industrial Parkway, Burlington, VT 05401"
Cumberland County Office on Aging,CCOOA,Bridgeton,NJ,Ms. Misono Miller (Executive Director),pgarino@njtransit.com,http://www.co.cumberland.nj.us.com/,(856)453-2220,"790 East Commerce Street, Bridgeton, NJ 08302"
"Lakeland Bus Lines, Inc.",,Dover,NJ,Mr. Gregory Mazzarisi (President),gmazz@nac.com,http://www.lakelandbus.com/,(800)367-0601 Ext:611,"425 East Blackwell Street, Dover, NJ 07802"
"Olympia Trails Bus Company, Inc.",Coach USA,Elizabeth,NJ,Mr. James Rutherford (V.P. Northeast Region),james.rutherford@coachusa.com,http://www.olympiabus.com/,(908)354-3330 Ext:273,"349 First Street, Elizabeth, NJ 07206"
"Orange-Newark-Elizabeth, Inc.",Coach USA,Elizabeth,NJ,Mr. James Rutherford (General Manager),james.rutherford@coachusa.com,http://www.coachusa.com/,(908)354-0545,"349 First Street, Elizabeth, NJ 07206"
Trans-Hudson Express,,Elizabeth,NJ,Mr. James Rutherford (General Manager),james.rutherford@coachusa.com,http://www.transhudson.com/,(973)354-0545,"349 First Street, Elizabeth, NJ 07206"
"Academy Lines, Inc.",,Hoboken,NJ,Mr. Francis Tedesco (President),FTEDESCO@ACADEMYBUS.COM,http://www.academybus.com/,(201)420-7000,"Francis A. Tedesco, President 111 Paterson Avenue, Hoboken, NJ 07030"
Port Authority Trans-Hudson Corporation,PATH,Jersey City,NJ,Mr. Michael DePallo (Director/General Manager),mdepallo@panynj.gov,http://www.panynj.gov/,(201)216-6199,"One Path Plaza, Jersey City, NJ 07306"
Port Authority Transit Corporation,PATCO,Lindenwold,NJ,Mr. Robert Box (General Manager),bbox@drpa.org,http://www.ridepatco.org/,(856)772-6900 Ext:6926,"Carlton Avenue, Lindenwold, NJ 08021"
"Hudson Transit Lines, Inc.",Short Line,Mahwah,NJ,Mr. George Grieve (General Manager),george.grieve@coachusa.com,http://www.shortlinebus.com/,(201)529-3666 Ext:1301,"4 Leisure Lane, Mahwah, NJ 07430"
DeCamp Bus Lines,,Montclair,NJ,Mr. Gary Pard (Vice President),garyppard@aol.com,http://www.decamp.com/,(973)783-7500,"101 Greenwood Avenue, Montclair, NJ 07042"
Suburban Transit Corporation,Coach USA,New Brunswick,NJ,Mr. Scott Sprengel (General Manager),scott.sprengel@coachusa.com,http://www.suburbantransit.com/,(732)249-1100,"750 Somerset Street, New Brunswick, NJ 08901"
New Jersey Transit Corporation-45,NJTC-45,Newark,NJ,Mr. Frank Riccio (President),MC1107@AOL.COM,http://www.njtransit.com/,(201)433-8248,"1 Penn Plaza East, Newark, NJ 07105"
New Jersey Transit Corporation,NJ TRANSIT,Newark,NJ,Mr. Richard Sarles (Executive Director),rsarles@njtransit.com,http://www.njtransit.com/,(973)491-8074,"One Penn Plaza, East, Newark, NJ 07105"
"Community Transit, Inc.",Community Transit,Paramus,NJ,Mr. John Nguyen (General Manager),john.nguyen@coachusa.com,http://www.coachusa.com/,(201)225-7515,"160 South route 17 North, Paramus, NJ 07652"
Port Imperial Ferry Corporation dba NY Waterway,,Weehawken,NJ,"Mr. Arthur Imperatore, Sr. (President and Chief Executive Officer)",imperatoresr@nywaterway.com,http://www.nywaterway.com/,201-902-8740,"4800 Avenue at Port Imperial, Weehawken, NJ 07086"
"Rockland Coaches, Inc.",,Westwood,NJ,Mr. George Grieve (President),george.grieve@coachusa.com,http://www.redandtanlines.com/,(201)225-7581,"180 Old Hook Road, Westwood, NJ 07675"
Capital District Transportation Authority,CDTA,Albany,NY,Mr. Carm Basile (Executive Director),carmb@cdta.org,http://www.cdta.org/,(518)437-8350,"110 Watervliet Avenue, Albany, NY 12206"
Private Transportation Corporation,,Brooklyn,NY,Mr. Jack Marmurstein (President),seegerct1@yahoo.com,,(718)875-8200 Ext:103,"15 Second Avenue, Brooklyn, NY 11215"
Monroe Bus Corporation,,Brooklyn,NY,Mr. Herman Freund (President),jfreund@monroebus.com,,(718)782-8700 Ext:117,"60 Nostrand Avenue, Brooklyn, NY 11205"
"Private One of New York, LLC, dba: New York Airport Service",,Brooklyn,NY,Mr. Jack Marmurstein (CEO),seegerct1@yahoo.com,http://www.nyairportservice.com/,(718)875-8200,"15 Second Avenue, Brooklyn, NY 11215"
Niagara Frontier Transportation Authority,NFT Metro,Buffalo,NY,Mr. Lawrence Meckler (Executive Director),lawrence_meckler@nfta.com,http://www.nfta.com/,(716)855-7230,"181 Ellicott Street, Buffalo, NY 14203"
Putnam County Transit,PART,Carmel,NY,"Mr. John Lynch (Commissioner of Planning, Development & Public Transp.)",john.lynch@putnamcountyny.gov,http://www.putnamcountyny.com/,(845)878-3480 Ext:110,"Putnam County Planning Department 841 Fair Street, Carmel, NY 10512"
Chemung County Transit System,CCTS,Elmira,NY,Mr. Thomas Santulli (Chemung County Executive),tsantulli@co.chemung.ny.us,http://www.chemungcountytransit.com/,(607)737-2912,"1201 Clemens Center Parkway, Elmira, NY 14901"
"Metropolitan Suburban Bus Authority, dba: MTA Long Island Bus",MTA Long Island Bus,Garden City,NY,Mr. Joseph Smith (President),Joseph.Smith@nyct.com,http://www.libus.org/,(516)296-4122 Ext:0000,"700 Commercial Avenue, Garden City, NY 11530"
Town of Highlands Dial-A-Bus,,Highland Falls,NY,Mrs. Colleen Solan (Manager ),csolan@townofhighlands.com,,(845)446-7433,"254 Main Street, Highland Falls, NY 10928"
Huntington Area Rapid Transit,HART,Huntington Station,NY,Mr. Frank Petrone (Town Supervisor),smcgloin@town.huntington.ny.us,http://town.huntington.ny.us/,(631)351-3053,"144 East Second Street, Huntington Station, NY 11746"
"Adirondack Transit Lines, Inc,",Adirondack Trailways,Hurley,NY,Mr. Eugene Berardi (President),eberardijr@trailwaysny.com,http://www.trailwaysny.com/,(845)339-4230 Ext:137,"499 Hurley Avenue, Hurley, NY 12443"
Tompkins Consolidated Area Transit,TCAT,Ithaca,NY,Mr. Joseph Turcotte (General Manager),jt1@tcatmail.com,http://www.tcatbus.com/,(607)277-9388 Ext:444,"737 Willow Avenue, Ithaca, NY 14850"
MTA Long Island Rail Road,MTA LIRR,Jamaica,NY,Ms. Helena Williams (President),hewilli@lirr.org,http://www.mta.nyc.ny.us/lirr/,(718)558-8252,"Jamaica Station, Jamaica, NY 11435"
Ulster County Area Transit,UCAT,Kingston,NY,Mr. Arthur Smith (Ulster County Budget Director),asmi@co.ulster.ny.us,http://www.co.ulster.ny.us/ucat,(845)340-3633,"1 Danny Circle, Kingston, NY 12401"
City of Long Beach,Long Beach Bus,Long Beach,NY,Mr. Charles Theofan (City Manager),ctheofan@longbeachny.org,http://www.longbeachny.org/,(516)431-1000 Ext:7201,"One West Chester Street, Long Beach, NY 11561"
Town of Monroe Dial-A-Bus,Monroe DAB,Monroe,NY,Hon. Sandy Leonard (Town Supervisor ),dab@monroeny.org,http://www.monroeny.org/,(845)783-1900 Ext:227,"91 Mine Road, Monroe, NY 10950"
Village of Kiryas Joel,KJ,Monroe,NY,Mr Abraham Wieder (Mayor),gskj@thejnet.com,,(845)783-8300,"Monroe, NY 10949"
Westchester County Bee-Line System,The Bee-Line System,Mount Vernon,NY,Mr. Lawrence Salley (Commissioner),lcs1@westchestergov.com,http://www.westchestergov.com/,(914)813-7715,"100 East First Street, Mount Vernon, NY 10550"
Clarkstown Mini-Trans,,Nanuet,NY,Mr. Alexander Gromack (Supervisor),a_gromack@town.clarkstown.ny.us,http://town.clarkstown.ny.us/,(845)639-2020,"16 Seeger Drive, Nanuet, NY 10954"
Newburgh Beacon Bus Corporation,NBBC,New Windsor,NY,"Mr. Edward Gallagher, Jr. (President)",egallagher@leprechaunlines.com,http://www.leprechaunlines.com/,(845)565-7900,"24 Windsor Highway, New Windsor, NY 12550"
"Metro-North Commuter Railroad Company, dba: MTA Metro-North Railroad",MTA-MNCR,New York,NY,Mr. Howard Permut (President),permut@mnr.org,http://www.mnr.org/,(212)340-2500,"347 Madison Avenue, New York, NY 10017"
New York City Department of Transportation,NYCDOT,New York,NY,Mr. Joseph Jarrin (Deputy Commisioner),jjarrin@dot.nyc.gov,http://www.ci.nyc.ny.us/html/dot,(212)676-0562,"59 Maiden Lane, 35 th Floor, New York, NY 10038"
MTA New York City Transit,NYCT,New York,NY,"Mr. Howard Roberts, Jr. (President)",Howard.Roberts@nyct.com,http://www.mta.info/,(646)252-5800,"2 Broadway, New York, NY 10004"
MTA Bus Company,MTABUS,New York,NY,Mr. Joseph Smith (President),joseph.smith@mtabusco.com,http://www.mta.info/,(646)252-5872,"341 Madison Avenue, New York, NY 10017"
"BillyBey Ferry Company, LLC",,New York,NY,Mr. Paul Goodman (Chief Executive Officer),paulgoodman@mindspring.com,http://www.nywaterway.com/,201-902-8814,"Pier 79 459 12th Avenue, New York, NY 10018"
"Hendrick Hudson Bus Lines, Inc.",HHBL,Newburgh,NY,"Mr. Edward Gallagher, Jr (Chief Executive )",egallagher@leprechaunlines.com,http://www.leprechaunlines.com/,(845)565-7900 Ext:302,"100 Leprechaun Lane, Newburgh, NY 12550"
Tioga County,Tioga County Transit,Owego,NY,Mr. Shawn Yetter (Commissioner of Department of Social Services),shawn.yetter@dfa.state.ny.us,http://www.tiogacountyny.com/transportation,(607)687-8302,"1062 State Route 38, Owego, NY 13827"
Transportation Resources Intra-County for Physically Handicapped and Senior Citizens,TRIPS,Pomona,NY,Mr. Michael Gurski (Transit Administrator),GurskiM@co.rockland.ny.us,http://www.co.rockland.ny.us/,(845)364-2066,"CITS-Trips-Yeager Health Group Center Building T, Sanatorium Road, Pomona, NY 10970"
Transport of Rockland,TOR,Pomona,NY,Mr. Michael Gurski (Transit Administrator),Gurskim@co.rockland.ny.us,http://www.co.rockland.ny.us/,(845)364-2066,"Robert L. Yeager Health Center Building T, Pomona, NY 10970"
City of Poughkeepsie,,Poughkeepsie,NY,Mr. Michael Long (City Administrator),cknapp@cityofpoughkeepsie.com,http://www.cityofpoughkeepsie.com/,(845)451-4072,"Poughkeepsie, NY 12602"
Dutchess County Division of Mass Transportation,Loop Bus,Poughkeepsie,NY,Mr. Scott Colburn (General Manager),scolburn@co.dutchess.ny.us,http://www.dutchessny.gov/,(845)473-0171 Ext:101,"14 Commerce Street, Poughkeepsie, NY 12603"
Greater Glens Falls Transit System,GGFT,Queensbury,NY,Mr. Scott Sopczyk (Transportation Director),ssggft@choiceonemail.com,http://www.cityofglensfalls.com/,(518)792-1086,"495 Queensbury Avenue, Queensbury, NY 12804"
"Regional Transit Service, Inc. and Lift Line, Inc.",R-GRTA,Rochester,NY,Mr. Mark Aesch (Chief Executive Officer),maesch@rgrta.com,http://www.rgrta.com/,(585)654-0220,"1372 East Main Street, Rochester, NY 14609"
Village of Spring Valley Bus,Spring Valley Jitney,Spring Valley,NY,Mr. George Darden (Mayor),gdarden@villagespringvalley.org,http://www.villagespringvalley.org/,(845)573-5864,"200 North Main Street, Spring Valley, NY 10977"
Monsey New Square Trails Corporation,,Spring Valley,NY,Mr. Chaim Lunger (President),clunger@monseytrails.com,http://www.monseybus.com/,(845)354-7026,"Eight Washington Avenue, Spring Valley, NY 10977"
"Atlantic Paratrans of NYC, Inc.",API,Staten Island,NY,Mr. Domenic Gatto (President and CEO),nyhq@aetg.net,http://www.atlanticexpress.com/,(718)442-7000,"7 North Street, Staten Island, NY 10302"
"Staten Island Rapid Transit Operating Authority, dba: MTA Staten Island Railway",SIRTOA,Staten Island,NY,Mr. William Massi (Director of Finance-Administration),William.Massi@nyct.com,http://www.mta.info/,(718)876-8255,"60 Bay Street, Staten Island, NY 10301"
"Centro of Oneida, Inc.",Centro of Oneida,Syracruse,NY,Mr. Frank Kobliski (Executive Director),fkobliski@centro.org,http://www.centro.org/,315-442-3360,"200 Cortland Avenue, Syracruse, NY 13205"
"CNY Centro, Inc.",CNY Centro,Syracuse,NY,Mr. Frank Kobliski (Executive Director),fkobliski@centro.org,http://www.centro.org/,(315)442-3360,"200 Cortland Ave., Syracuse, NY 13205"
"Centro of Cayuga, Inc.",Centro of Cayuga,Syracuse,NY,Mr. Frank Kobliski (Executive Director),fkobliski@centro.org,http://www.centro.org/,(315)442-3360,"200 Cortland Avenue, Syracuse, NY 13205"
"Centro of Oswego, Inc.",Centro of Oswego,Syracuse,NY,Mr. Frank Kobliski (Executive Director),fkobliski@centro.org,http://www.centro.org/,(315)442-3360,"200 Cortland Avenue, Syracuse, NY 13205"
Broome County Department of Public Transportation,Broome County,Vestal,NY,Ms. Barbara Fiala (Broome County Executive),dewing@co.broome.ny.us,http://www.gobroomecounty.com/transit/,(607)763-4464,"413 Old Mill Road, Vestal, NY 13850"
Suffolk County Department of Public Works - Transportation Division,ST,Yaphank,NY,"Mr. Robert Shinnick (Director, Transportation Operations)",robert.shinnick@co.suffolk.ny.us,http://www.sct-bus.org/,(631)852-4880,"Rudolph M. Kammerer Building 335 Yaphank Avenue, Yaphank, NY 11980"
"Trans-Bridge Lines, Inc.",,Bethlehem,PA,Mr. Thomas JeBran (President),tbl@fast.net,http://www.transbridgelines.com/,(610)868-6001 Ext:122,"2012 Industrial Drive, Bethlehem, PA 18017"
Washington Metropolitan Area Transit Authority,WMATA,Washington,DC,Mr. John Catoe (General Manager),jbcatoe@WMATA.com,http://www.wmata.com/,(202)962-1000,"600 Fifth Street, N.W., Washington, DC 20001"
Delaware Transit Corporation,DTC,Dover,DE,Mr. Stephen Kingsberry (Executive Director),stephen.kingsberry@state.de.us,http://www.dartfirststate.com/,(302)760-2831,"900 Public Safety Boulevard, Dover, DE 19901"
Harford Transit,HT,Abingdon,MD,"Mr. Michael Hannan (Manager, Harford Transit)",mthannan@harfordcountymd.gov,http://www.harfordcountymd.gov/services/transportation/,(410)612-1742,"1311 Abingdon Road, Abingdon, MD 21009"
Annapolis Department of Transportation,Annapolis Transit,Annapolis,MD,Ms. Danielle Matland (Director),matlandd@annapolis.gov,http://www.annapolis.gov/,(410)263-7964 Ext:6013,"308 Chinquapin Round Road, Annapolis, MD 21401"
Maryland Transit Administration,MTA,Baltimore,MD,Mr. Paul Wiedefeld (Administrator),pwiedefeld@mtamaryland.com,http://www.mtamaryland.com/,(410)767-3943,"6 St. Paul Street, Baltimore, MD 21202"
Allegany County Transit,ACT,Cumberland,MD,"Mr. James Stafford, Jr. (Transit Chief)",jstafford@allconet.org,http://gov.allconet.org/ACT,(301)722-6360,"1000 Lafayette Avenue, Cumberland, MD 21502"
Howard Transit,HT,Ellicott City,MD,Mr. Ben Pickar (Chief Transportation Planning),bpickar@howardcountymd.gov,http://www.howardtransit.com/,(410)313-4360,"3430 Courthouse Drive, Ellicott City, MD 20707"
Transit Services of Frederick County,,Frederick,MD,Ms. Sherry Burford (Division Director),SBurford@FrederickCountyMD.gov,http://www.frederickcountymd.gov/transit,(301)600-2065,"1040 Rocky Springs Road, Frederick, MD 21702"
Washington County Transit,County Commuter,Hagerstown,MD,Mr. Kevin Cerrone (Director),kcerrone@washco-md.net,http://www.washco-md.net/,(240)313-2750,"1000 West Washington Street, Hagerstown, MD 21740"
Prince George's County Transit,TheBus,Largo,MD,Mr. James Gordon (Acting Deputy Director),JRGordon@co.pg.md.us,http://www.princegeorgescountymd.gov/,(301)883-5600,"9400 Peppercorn Place Suite #320, Largo, MD 20774"
"County Commissioners of Charles County, MD",DCS VanGO,Port Tobacco,MD,Mr. Jeffry Barnett (Chief of Transportation),BarnettJ@charlescounty.org,http://www.go-vango.com/,(301)934-0102,"8190 Port Tobacco Road, Port Tobacco, MD 20677"
Ride-On Montgomery County Transit,,Rockville,MD,Ms. Carolyn Biggins (CEO/Chief-Division of Transit Services),Carolyn.Biggins@montgomerycountymd.gov,http://www.montgomerycountymd.gov/,(240)777-5806,"101 Monroe Street 5th Floor, Rockville, MD 20850"
The Tri--County Council for the Lower Eastern Shore of Maryland,Shore Transit,Snow Hill,MD,Mr. Michael Pennington (Executive Director ),mike@lowershore.org,http://www.shoretransit.org/,410-632-4700,"101 West Green Street, Snow Hill , MD 21863"
Carroll County Planning Department,CATS,Westminster,MD,Mr. Steven Horn (CEO Planning Director),shorn@ccg.carr.org,http://www.carrolltransit.org/,(410)386-2145,"225 North Center Street, Westminster, MD 21157"
Lehigh and Northampton Transportation Authority,LANTA,Allentown,PA,Mr. Armando Greco (Executive Director),agreco@lantabus.com,http://www.lantabus.com/,(610)435-4052,"1060 Lehigh Street, Allentown, PA 18103"
Altoona Metro Transit,AMTRAN,Altoona,PA,Mr. Eric Wolf (General Manager),EricWolf@Amtran.Org,http://www.amtran.org/,(814)944-4074,"3301 Fifth Avenue, Altoona, PA 16602"
Mid Mon Valley Transit Authority,MMVTA,Charleroi,PA,Mrs. Valerie Kissell (Executive Director),vkissell@mmvta.com,http://www.mmvta.com/,(724)489-0880,"1300 McKean Avenue, Charleroi, PA 15022"
Erie Metropolitan Transit Authority,EMTA,Erie,PA,Mr. Dennis Solensky (Executive Director),dsolensky@emtaerie.com,http://www.emtaerie.com/,(814)459-4287,"127 East 14th Street, Erie, PA 16512"
Westmoreland County Transit Authority,WCTA,Greensburg,PA,Mr. Larry Morris (Executive Director),lmorris@westmorelandtransit.com,http://www.westmorelandtransit.com/,(724)832-2705,"41 Bell Way, Greensburg, PA 15601"
Capital Area Transit,CAT,Harrisburg,PA,Mr. James Hoffer (Executive Director),jhoffer@cattranist.com,http://www.cattransit.com/,(717)233-5657,"901 North Cameron Street, Harrisburg, PA 17105"
Pennsylvania Department of Transportation,PENNDOT,Harrisburg,PA,"Mr. Robert Sharp (Chief, Rural & Intercity Transportation Division)",rosharp@state.pa.us,http://www.dot.state.pa.us/,(717)783-9461,"Harrisburg, PA 17105"
Shenango Valley Shuttle Service,SVSS,Hermitage,PA,Mr. Thomas Tulip (Administrator),TTulip@mcrcog.com,http://www.mcrcog.com/,(724)981-1561,"2495 Highland Road, Hermitage, PA 16148"
Cambria County Transit Authority,CamTran,Johnstown,PA,Ms. Rose Lucey-Noll (Executive Director),rlnoll@camtranbus.com,http://www.camtranbus.com/,(814)535-5526 Ext:202,"726 Central Avenue, Johnstown, PA 15902"
Luzerne County Transportation Authority,LCTA,Kingston,PA,Mr. Stanley Strelish (Executive Director),sstrelish@epix.net,http://www.lctabus.com/,(570)288-9356 Ext:206,"315 Northampton Street, Kingston, PA 18704"
Red Rose Transit Authority,RRTA,Lancaster,PA,Mr. David Kilmer (Executive Director),dkilmer@redrosetransit.com,http://www.redrosetransit.com/,(717)397-5613,"45 Erick Road, Lancaster, PA 17601"
County of Lebanon Transit Authority,COLT,Lebanon,PA,Ms. Theresa Giurintano (Executive Director),tgiurintano@coltbus.org,http://www.coltbus.org/,717-274-3664 Ext:311,"200 Willow Street, Lebanon, PA 17046"
Fayette Area Coordinated Transportation,FACT,Lemont Furnace,PA,Mrs. Lori Groover-Smith (Acting Director),lgsmith@hs.fayette.org,http://www.factbus.com/,(724)628-7485,"825 Airport Road, Lemont Furnace, PA 15456"
Southeastern Pennsylvania Transportation Authority,SEPTA,Philadelphia,PA,Mr. Joseph Casey (General Manager),jcasey@septa.org,http://www.septa.org/,(215)580-7070,"1234 Market Street, Philadelphia, PA 19107"
Access Transportation Systems,ACCESS,Pittsburgh,PA,Ms. Karen Hoesch (Executive Director),khoesch@accesstransys.com,http://www.portauthority.org/PAAC/CustomerInfo/ACCESS/tabid/121/Default.aspx,(412)562-5380 Ext:3001,"Centre City Tower 440 650 Smithfield Street, Pittsburgh, PA 15222"
Port Authority of Allegheny County,Port Authority,Pittsburgh,PA,Mr. Stephen Bland (Chief Executive Officer),sbland@portauthority.org,http://www.portauthority.org/,(412)566-5311,"345 Sixth Avenue 3rd Floor, Pittsburgh, PA 15222"
Southwestern Pennsylvania Commission,SPC,Pittsburgh,PA,Dr. James Hassinger (Executive Director),jhassinger@spcregion.org,http://www.spcregion.org/,(412)391-5590 Ext:321,"425 Sixth Avenue Suite 2500, Pittsburgh, PA 15219"
Berks Area Reading Transportation Authority,BARTA,Reading,PA,Mr. Dennis Louwerse (Executive Director),dlouwerse@bartabus.com,http://www.bartabus.com/,(610)921-0605 Ext:201,"1700 North 11th Street, Reading, PA 19604"
Beaver County Transit Authority,BCTA,Rochester,PA,Ms. Mary Morandini (General Manager),maryjom@bcta.com,http://www.bcta.com/,(724)728-4255,"200 West Washington Street, Rochester, PA 15074"
County of Lackawanna Transit System,COLTS,Scranton,PA,Mr. Robert Fiume (Executive Director),fiumer@lackawannacounty.org,http://www.coltsbus.com/,(570)346-2061 Ext:1263,"North South Road, Scranton, PA 18504"
Centre Area Transportation Authority,CATA,State College,PA,Mr. Hugh Mose (General Manager),hmose@catabus.com,http://www.catabus.com/,(814)238-2282 Ext:130,"2081 West Whitehall Road, State College, PA 16801"
"G G and C Bus Company, Inc.",,Washington,PA,Mr. John Lenzner (President),dgood@ggcbus.com,http://www.ggcbusride.com/,(724)222-2320,"2924 Jefferson Avenue, Washington, PA 15301"
Williamsport Bureau of Transportation,RVT,Williamsport,PA,"Mr. William Nichols, Jr. (General Manager)",bnichols@rideRVT.com,http://www.ridervt.com/,(570)326-2500,"1500 West Third Street, Williamsport, PA 17701"
York County Transportation Authority,rabbittransit,York,PA,Mr. Richard Farr (Executive Director),rfarr@rabbittransit.org,http://www.rabbittransit.org/,(717)846-5562,"1230 Roosevelt Avenue, York, PA 17404"
City of Alexandria,DASH,Alexandria,VA,Ms. Laura Triggs (Director of Finance),laura.triggs@alexandriava.gov,http://www.alexandriava.gov/dot,(703)746-3900,"301 King Street, Alexandria, VA 22314"
Virginia Railway Express,VRE,Alexandria,VA,Mr. Dale Zehner (Chief Executive Officer),dzehner@vre.org,http://www.vre.org/,(703)684-1001,"1500 King Street Suite 202, Alexandria, VA 22314"
Arlington Transit - Arlington County,ART,Arlington,VA,Mr. Stephen DelGiudice (Transit Bureau Chief),sdelgiudice@arlingtonva.us,http://www.arlingtontransit.com/,(703)228-0090,"2100 Clarendon Boulevard Suite 900, Arlington, VA 22201"
Blacksburg Transit,BT,Blacksburg,VA,Mr. Marc Verniel (Town Manager),mverniel@blacksburg.gov,http://www.btransit.org/,(540)961-1130,"2800 Commerce Street, Blacksburg, VA 24060"
Charlottesville Transit Service,CTS,Charlottesville,VA,Mr. Bill Watterson (Transit Manager),watterson@charlottesville.org,http://www.charlottesville.org/transit,(434)970-3840 Ext:3849,"315 Fourth Street, N.W., Charlottesville, VA 22902"
City of Danville Mass Transit System,Danville Transit,Danville,VA,Mr. Lyle Lacy (City Manager),cmo@ci.danville.va.us,http://www.danvilletransit.com/,(434)799-5100,"427 Patton Street, Danville, VA 24541"
City of Fairfax CUE Bus,CUE,Fairfax,VA,Mr. Robert Sisson (City Manager),RSisson@fairfaxva.gov,http://www.cuebus.org/,(703)385-7850,"10455 Armstrong Street, Fairfax, VA 22030"
Fairfax Connector Bus System,Fairfax Connector,Fairfax,VA,"Ms. Katharine Ichter, P.E. (Director - Department of Transportation)",judy.carleton@fairfaxcounty.gov,http://www.fairfaxconnector.com/,(703)324-1100,"12055 Government Center Parkway Suite 1034, Fairfax, VA 22035"
Fredericksburg Regional Transit,FRED,Fredericksburg,VA,Mr. Beverly Cameron (City Manager),bcameron@fredericksburgva.gov,http://www.fredericksburgva.gov/,(540)372-1010,"1400 Jefferson Davis Hwy, Fredericksburg, VA 22401"
"Transportation District Commission of Hampton Roads, dba: Hampton Roads Transit",HRT,Hampton,VA,Mr. Michael Townes (Chief Executive Officer),mtownes@hrtransit.org,http://www.gohrt.com/,(757)222-6000,"3400 Victoria Boulevard, Hampton, VA 23661"
City of Harrisonburg Department of Public Transportation,Harrisonburg Transit,Harrisonburg,VA,Mr. Reggie Smith (Director of Public Transportation),reggies@hdpt.com,http://www.hdpt.com/,(540)432-0496,"475 East Washington Street, Harrisonburg, VA 22802"
Loudoun County Commuter Bus Service - Office of Transportation Services,LC Transit,Leesburg,VA,Mrs. Nancy Gourley (Chief Executive Officer),nancy.gourley@loudoun.gov,http://www.loudoun.gov/bus,(703)737-8624,"1 Harrison Street, S.E. MSC#69, Leesburg, VA 20175"
Greater Lynchburg Transit Company,GLTC,Lynchburg,VA,Mr. Michael Carroll (General Manager),michael.carroll@lynchburgva.gov,http://www.gltconline.com/,(434)455-5084,"1301 Kemper Street, Lynchburg, VA 24505"
Petersburg Area Transit,PAT,Petersburg,VA,Mr. B. David Canada (City Manager),ctymgr@earthlink.net,http://www.petersburg-va.org/,(804)733-2301,"309 Fairgrounds Road, Petersburg, VA 23803"
Greater Richmond Transit Company,GRTC Transit System,Richmond,VA,Mr. John Lewis (CEO),jlewis@ridegrtc.com,http://www.ridegrtc.com/,(804)358-3871,"101 South Davis Avenue, Richmond, VA 23220"
Greater Roanoke Transit Company,Valley Metro,Roanoke,VA,Mr. Carl Palmer (General Manager),cpalmer@valleymetro.com,http://valleymetro.com/,(540)982-0305 Ext:111,"1108 Campbell Avenue, S.E., Roanoke, VA 24032"
Williamsburg Area Transport,WAT,Williamsburg,VA,Mr. Mark Rickards (Executive Director),mrickards@james-city.va.us,http://www.williamsburgtransport.com/,(757)220-5493,"7239 Pocahontas Trail, Williamsburg, VA 23185"
Potomac and Rappahannock Transportation Commission,PRTC,Woodbridge,VA,Mr. Alfred Harf (Executive Director),AHarf@Omniride.com,http://www.prtctransit.org/,(703)583-7782,"14700 Potomac Mills Road, Woodbridge, VA 22192"
Kanawha Valley Regional Transportation Authority,KVRTA,Charleston,WV,Mr. Dennis Dawson (General Manager),ddawson@rideonkrt.com,http://www.rideonkrt.com/,(304)343-3840,"1550 4TH AVENUE, Charleston, WV 25324"
The Tri-State Transit Authority,TTA,Huntington,WV,Mr. Paul Davis (CEO),pdavis@tta-wv.com,http://www.tta-wv.com/,(304)529-6094 Ext:222,"1120 Virginia Avenue, West, Huntington, WV 25779"
Monongalia County Urban Transit,Mt. Line Transit,Morgantown,WV,Mrs. Jenny Dinsmore (Board President),wp@busride.org,http://www.busride.org/,(304)296-3680,"420 Dupont Road, Morgantown, WV 26501"
Mid-Ohio Valley Transit Authority,Easy Rider,Parkersburg,WV,Mr. G. Lockhart (General Manager ),movta@live.com,http://www.easyriderbus.com/,(304)422-4100,"520 Juliana Street, Parkersburg, WV 26101"
Ohio Valley Regional Transportation Authority,OVRTA / EORTA,Wheeling,WV,Mr. Thomas Hvizdos (Executive Director),hvizdos@ovrta.org,http://www.ovrta.org/,(304)232-2190,"21 South Huron Street, Wheeling, WV 26003"
Birmingham-Jefferson County Transit Authority,MAX,Birmingham,AL,Mr. David Hill (Executive Director),dhill@bjcta.org,http://www.bjcta.org/,(205)521-0140,"1735 Morris Avenue, Birmingham, AL 35203"
Morgan County Area Transportation System,MCATS,Decatur,AL,"Mr. John Glasscock (Chairman, Morgan County Commission)",jglasscock@co.morgan.al.us,http://www.co.morgan.al.us/,(256)351-4730,"Decatur, AL 35602"
Wiregrass Transit Authority,,Dothan,AL,Mr. Thomas Solomon (Executive Director),tsolomon@searpdc.org,http://www.sanman.net/searpdc/searpdc.htm,(334)794-4093 Ext:1417,"201 Depot St, Dothan, AL 36302"
Gadsden Transportation Services - City of Gadsden,GTS,Gadsden,AL,"Hon. Sherman Guyton (Mayor, City of Gadsden)",sguyton@cityofgadsden.com,http://www.cityofgadsden.com/,(256)549-4646,"90 Broad Street, Gadsden, AL 35902"
"City of Huntsville, Alabama - Public Transportation Division",,Huntsville,AL,"Mr. John Brown, Jr. (Director)",tommy.brown@hsvcity.com,http://www.hsvcity.com/,(256)427-6811,"500 Church Street Suite B, Huntsville, AL 35801"
The Wave Transit System,WTS,Mobile,AL,Mr. Booker Parker (General Manager),tparker@thewavetransit.com,http://www.thewavetransit.com/,(251)375-2350 Ext:0,"1224 West I-65 Service Road South, Mobile, AL 36609"
Montgomery Area Transit System,MATS,Montgomery,AL,Hon. Todd Strange (Mayor),mayor@montgomeryal.gov,http://www.montgomerytransit.com/,(334)241-2000,"2318 West Fairview Avenue, Montgomery, AL 36108"
Northwest Alabama Council of Local Governments,NACOLG,Muscle Shoals,AL,Mr. Keith Jones (Executive Director),kjones@nwscc.cc.al.us,http://www.nacolg.com/,(256)389-0555,"Muscle Shoals, AL 35662"
Lee-Russell Council of Governments,LRCOG,Opelika,AL,Ms. Suzanne Burnette (Executive Director),suzanne.burnette@adss.alabama.gov,http://www.lrcog.com/,(334)749-5264 Ext:206,"2207 Gateway Drive, Opelika, AL 36801"
Tuscaloosa County Parking and Transit Authority,TMT,Tuscaloosa,AL,Mr. Jimmie Cain (CEO and Manager),jcain@uatrolley.org,http://www.uatrolley.org/,(205)556-3876,"2450 Hargrove Road, East, Tuscaloosa, AL 35405"
Polk County Transit Services Division - Polk County Board of County Commissioners,PCTS,Bartow,FL,"Mr. Paul Simmons (Director, Polk County Transit Services)",paulsimmons@polk-county.net,http://www.polk-county.net/,(863)534-5368,"1290 Golfview Avenue Drawer HS09, Bartow, FL 33831"
"Tri-County Community Council, Inc.",TCCC,Bonifay,FL,Mr. Joel Paul (Executive Director),joelpaul.tccc@mchsi.com,,(850)547-3689,"302 North Oklahoma Street, Bonifay, FL 32425"
Manatee County Area Transit,MCAT,Bradenton,FL,Mr. Ralf Heseler (Transit Manager),ralf.heseler@mymanatee.org,http://www.mymanatee.org/,(941)747-8621 Ext:222,"1108 26th Avenue, East, Bradenton, FL 34208"
Hernando County Board of County Commissioners,The Bus,Brooksville,FL,Mr. Ronald Pianta (Planning Director),RPianta@co.hernando.fl.us,http://www.hernandobus.com/,(352)754-4057,"20 North Main Street, Room 262, Brooksville, FL 34601"
Space Coast Area Transit,SCAT,Cocoa,FL,Mr. James Liesenfelt (Transit Director),jim@ridescat.com,http://www.ridescat.com/,(321)635-7815,"401 South Varr Avenue, Cocoa, FL 32922"
Lee County Transit,LeeTran,Fort Myers,FL,Mr. Steven Myers (Transit Director),slmyers@leegov.com,http://www.rideleetran.com/,(239)533-0322,"6035 Landing View Road, Fort Myers, FL 33907"
"Council on Aging of St. Lucie, Inc.",CT,Fort Pierce,FL,Mr. Darrell Drummond (President/Chief Executive Officer),ddrummond@coasl.com,http://www.treasurecoastconnector.com/,(772)345-8215,"1505 Orange Avenue, Fort Pierce, FL 34950"
Okaloosa County Board of County Commissioners,,Fort Walton Beach,FL,Mr. William Roberts (Chairman),broberts@co.okaloosa.fl.us,http://www.okaloosa.fl.us/,(850)651-7105,"600 Transit Way, Fort Walton Beach, FL 32547"
Gainesville Regional Transit System,RTS,Gainesville,FL,Mr. Jesus Gomez (Transit Director),gomezjm@cityofgainesville.org,http://www.go-rts.com/,(352)334-2609,"100 Southeast 10th Avenue, Gainesville, FL 32601"
Jacksonville Transportation Authority,JTA,Jacksonville,FL,Mr. Michael Blaylock (Executive Director),MBlaylock@jtafla.com,http://www.jtafla.com/,(904)630-3181,"100 North Myrtle Avenue, Jacksonville, FL 32204"
Lakeland Area Mass Transit District,Citrus Connection,Lakeland,FL,Mr. Daniel Ours (Executive Director),dours@ridecitrus.com,http://www.ridecitrus.com/,(863)688-7433 Ext:121,"1212 George Jenkins Boulevard, Lakeland, FL 33802"
Miami-Dade Transit,MDT,Miami,FL,Mr. Harpal Kapoor (Director),hkapoor@miamidade.gov,http://www.miamidade.gov/transit,(786)469-5675,"701 NW 1st Court 17th Floor, Miami, FL 33136"
"Miami Lakes - VPSI, Inc.",,Miami Lakes,FL,Mr Jeffery Henning (President),jeff.henning@vpsiinc.com,http://www.vpsiinc.com/,(248)597-3500,"14361 Commerce Way Suite 303, Miami Lakes, FL 33016"
Collier Area Transit,CAT,Naples,FL,"Mr. Norman Feder (Administrator, Transportation Division)",NormanFeder@colliergov.net,http://www.colliergov.net/,(239)774-8192,"8300 RADIO RD, Naples, FL 34104"
"City of Ocala, Florida",SunTran,Ocala,FL,Mr. Greg Slay (Director),gslay@ocalafl.org,http://www.suntran.org/,(352)629-8297,"121 Southeast Watula Avenue P.O. Box 1270, Ocala, FL 34478"
Central Florida Regional Transportation Authority,LYNX,Orlando,FL,Ms. Linda Watson (Executive Director),lwatson@golynx.com,http://www.golynx.com/,(407)841-2279 Ext:6017,"455 North Garland Avenue, Orlando, FL 32801"
Bay County Council On Aging Bay Coordinated Transportation,BCCOA,Panama City,FL,Ms. Elizabeth Coulliette (Executive Director),coull1074@aol.com,http://www.baycouncilonaging.org/,(850)769-3468,"1116 Frankford Avenue, Panama City, FL 32401"
Escambia County Area Transit,ECAT,Pensacola,FL,Mr. William Gordon (Interim General Manager),kenneth.gordon@veoliatransportation.com,http://www.goecat.com/,(850)595-3228 Ext:214,"1515 West Fairfield Drive, Pensacola, FL 32501"
Broward County Transportation Department,BCT,Pompano Beach,FL,Mr. Christopher Walton (Director),cwalton@broward.org,http://www.broward.org/bct,(954)357-8361,"3201 West Copans Road, Pompano Beach, FL 33069"
South Florida Regional Transportation Authority,TRI-Rail,Pompano Beach,FL,Mr. Joseph Giulietti (Executive Director),giuliettij@sfrta.fl.gov,http://tri-rail.com/,(954)942-7245,"800 Northwest 33rd Street Suite 100, Pompano Beach, FL 33064"
Pasco County Public Transportation,PCPT,Port Richey,FL,Mr. Daniel Johnson (Assistant County Administrator),djohnson@pascocountyfl.net,http://www.ridepcpt.com/,(727)847-8008,"8620 Galen Wilson Boulevard, Port Richey, FL 34668"
Charlotte County Transit Division,,Punta Gorda,FL,Mr. Fred McKenna (Transit Supervisor),fred.mckenna@charlottefl.com,http://www.charlottefl.com/,941-833-6236 Ext:6236,"25490 Airport Road, Punta Gorda, FL 33950"
Sarasota County Area Transit,SCAT,Sarasota,FL,Mr. Anthony Beckford (General Manager Transit),abeckfor@scgov.net,http://www.scgov.net/scat,(941)861-1003,"5303 Pinkney Avenue, Sarasota, FL 34233"
"County of Volusia, dba: VOTRAN",Votran,South Daytona,FL,Mr Ken Fischer (General Manager),kfischer@co.volusia.fl.us,http://www.votran.org/,(386)756-7496 Ext:4126,"950 Big Tree Road, South Daytona, FL 32119"
"St Johns County, Florida, Board of County Commissioners",St Johns County,St. Augustine,FL,Mr. Michael Wanchick (County Administrator),mwanchick@sjcfl.us,http://www.co.st-johns.fl.us/,(904)209-0530,"500 San Sebastian View, St. Augustine, FL 32084"
Pinellas Suncoast Transit Authority,PSTA,St. Petersburg,FL,Ms. Lori Clark (Controller),lclark@psta.net,http://www.psta.net/,(727)540-1817,"3201 Scherer Drive, St. Petersburg, FL 33716"
"Council on Aging of Martin County, Inc.",COAMC \ CC - MCBOCC,Stuart,FL,Ms. Barbara Kauffman (President/CEO),bkauffman@coamc.org,http://www.coamc.org/,(772)223-7800 Ext:801,"1071 East 10th Street, Stuart, FL 34996"
City of Tallahassee,StarMetro,Tallahassee,FL,Mr. Ronald Garrison (Executive Director),ron.garrison@talgov.com,http://www.talgov.com/,(850)891-5200,"555 Appleyard Drive, Tallahassee, FL 32304"
Hillsborough Area Regional Transit Authority,HART,Tampa,FL,Mr. David Armijo (Chief Executive Officer),ARMIJOD@GOHART.ORG,http://www.gohart.org/,(813)623-5835 Ext:1701,"4305 East 21st Avenue, Tampa, FL 33605"
Lake County Board of County Commissioners,LCBOCC,Tavares,FL,Ms. Cindy Hall (County Manager),chall@lakecountyfl.gov,http://www.lakecountyfl.gov/,352-343-9888,"Tavares, FL 32778"
"Senior Resource Association, Inc.",SRA,Vero Beach,FL,Ms. Karen Deigl (President/CEO),kdeigl@sramail.org,http://www.seniorresourceassociation.org/,(772)569-0760 Ext:104,"694 14th Street, Vero Beach, FL 32960"
"Board of County Commissioners, Palm Beach County, PalmTran, Inc.",PalmTran,West Palm Beach,FL,Mr. Charles Cohen (Executive Director),ccohen@pbcgov.com,http://www.palmtran.org/,(561)841-4200,"3201 Electronics Way, West Palm Beach, FL 33407"
Albany Transit System,ATS,Albany,GA,Mr. Alfred Lott (City Manager),alott@albany.ga.us,http://www.albany.ga.us/ats/ats,(229)431-3234,"712 Flint Avenue, Albany, GA 31701"
Athens Transit System,ATS,Athens,GA,Mr. Butch McDuffie (Director of Public Transit),butchmcduffie@co.clarke.ga.us,http://www.athenstransit.com/,(706)613-3432,"775 E. Broad St., Athens, GA 30601"
Georgia Regional Transportation Authority,GRTA,Atlanta,GA,Mr. Dick Anderson (Executive Director),danderson@grta.org,http://www.grta.org/,404-463-3012,"245 Peachtree Center Ave. NE Suite 800, Atlanta, GA 30303"
Metropolitan Atlanta Rapid Transit Authority,MARTA,Atlanta,GA,Dr. Beverly Scott (General Manager/CEO),bscott@itsmarta.com,http://www.itsmarta.com/,(404)848-5313,"2424 Piedmont Road, N.E., Atlanta, GA 30324"
Augusta Richmond County Transit Department,APT,Augusta,GA,Mr. Heyward Johnson (Transit Director),hjohnson@augustaga.gov,http://www.augustaga.gov/,(706)821-1721,"1535 Fenwick Street, Augusta, GA 30904"
City of Canton Transit,,Canton,GA,Hon. Gene Hobgood (Mayor),geneh@canton-georgia.com,http://www.canton-georgia.com/,(770)704-1506,"151 Elizabeth Street, Canton, GA 30114"
Metra Transit System,Metra,Columbus,GA,Mrs. Saundra Hunter (Director of Transportation/METRA),shunter@columbusga.org,http://www.metratransit.com/,(706)225-4582,"814 Linwood Boulevard, Columbus, GA 31902"
Douglas County Rideshare,Rideshare,Douglasville,GA,Mr. Tom Worthan (Chairperson-County Commission),tworthan@co.douglas.ga.us,http://www.douglascountyrideshare.com/,(770)920-7269,"Douglas County Transportation Cntr. 8800 Dorris Road, Douglasville, GA 30134"
Clayton County Board of Commissioners,CTRAN,Jonesboro,GA,"Mr. Eldrin Bell (Chairman, Clayton County Board of Commissioners)",eldrin.bell@co.clayton.ga.us,http://www.co.clayton.ga.us/,(770)477-3208,"112 Smith Street, Jonesboro, GA 30236"
Gwinnett County Board of Commissioners,GCT,Lawrenceville,GA,Mr. Leslie Allen (Director),brian.allen@gwinnettcounty.com,http://www.gwinnettcounty.com/,(770)822-7417,"75 Langley Drive, Lawrenceville, GA 30045"
Macon-Bibb County Transit Authority,MTA,Macon,GA,Mr. Richard Jones (General Manager/CEO),rjones@mta-mac.com,http://www.mta-mac.com/,(478)803-2500 Ext:2523,"200 Cherry Street, Macon, GA 31201"
Cobb County Department of Transportation Authority,CCT,Marietta,GA,Ms. Rebecca Gutowsky (Transit Division Manager),rebecca.gutowsky@cobbcounty.org,http://www.cobbcounty.org/,(770)528-1614,"463 Commerce Park Drive Suite 112, Marietta, GA 30060"
"Marietta - VPSI, Inc.",,Marietta,GA,Mr. Jeffrey Henning (President),jeff.henning@vpsiinc.com,http://www.vpsiinc.com/,(248)597-3500,"1343 Canton Rd, Marietta, GA 30066"
City of Rome Transit Department,RTD,Rome,GA,Mr. John Bennett (City Manager),jbennett@romega.us,http://www.romega.us/,706-236-4400,"168 North Avenue, Rome, GA 30161"
Chatham Area Transit Authority,CAT,Savannah,GA,Mr. Charles Odimgbe (Executive Director),COdimgbe@catchacat.org,http://www.catchacat.org/,(912)236-2111 Ext:3910,"900 East Gwinnett Street, Savannah, GA 31401"
Transit Authority of Northern Kentucky,TANK,Fort Wright,KY,Ms. Mary Lou Franzoni (General Manager),mfranzoni@tankbus.org,http://www.tankbus.org/,(859)814-2124,"3375 Madison Pike, Fort Wright, KY 41017"
Lexington Transit Authority,LexTran,Lexington,KY,Mr Rocky Burke (General Manager),rburke@lextran.com,http://www.lextranonthemove.org/,(859)255-7756 Ext:202,"109 West Loudon Avenue, Lexington, KY 40508"
Transit Authority of River City,TARC,Louisville,KY,Mr. J. Barker (Executive Director),jbarrybarker@ridetarc.org,http://www.ridetarc.org/,(502)561-5100,"1000 West Broadway, Louisville, KY 40203"
Coast Transit Authority,CTA,Gulfport,MS,Mr. Kevin Coggin (Executive Director),kcoggin@coasttransit.com,http://www.coasttransit.com/,(228)896-8080 Ext:212,"333 DeBuys Road, Gulfport, MS 39507"
City of Jackson Transit System,JATRAN,Jackson,MS,Mr. Sam Tensley (General Manager),jatrangm@bellsouth.net,http://www.city.jackson.ms.us/,(601)948-7140 Ext:5400,"200 South President Street, Jackson, MS 39205"
Asheville Transit System,ATS,Asheville,NC,Mrs. Mariate Echeverry (Transportation Planning Manager),mecheverry@ashevillenc.gov,http://www.ashevilletransit.com/,(828)232-4528,"360 West Haywood Street, Asheville, NC 28801"
Town of Cary,CTRAN,Cary,NC,Mr. Benjamin Shivar (Town Manager),ben.shivar@townofcary.org,http://www.townofcary.org/,(919)469-4003,"316 North Academy Street, Cary, NC 27513"
Chapel Hill Transit,CHT,Chapel Hill,NC,Mr. Kerry Spade (Transportation Director),sspade@townofchapelhill.org,http://www.chtransit.org/,(919)969-4909,"405 Martin Luther King, Jr. Blvd., Chapel Hill, NC 27514"
Charlotte Area Transit System,CATS,Charlotte,NC,Mr. John Muth (Interim Chief Executive Officer),jmuth@ci.charlotte.nc.us,http://www.ridetransit.org/,(704)336-3373,"600 East Fourth Street, Charlotte, NC 28202"
Durham Area Transit Authority,DATA,Durham,NC,Mr. Stephen Mancuso (Transit Administrator),stephen.mancuso@durhamnc.gov,http://www.durhamnc.gov/,(919)560-1535 Ext:209,"1907 Fay Street, Durham, NC 27704"
Fayetteville Area System of Transit,FAST,Fayetteville,NC,Mr. Dale Iman (Chief Executive Officer),DIman@ci.fay.nc.us,http://fayettevilleonline.com/fast/,(910)433-1990,"455 Grove Street, Fayetteville, NC 28301"
Goldsboro-Wayne Transportation Authority,GATEWAY,Goldsboro,NC,Mr. Alan Stubbs (Executive Director/CEO),alan.stubbs@waynegov.com,http://www.ridegateway.com/,(919)736-1374,"P. O. Box 227, Goldsboro, NC 27533"
Guildford County Transportation,GCTAMS,Greensboro,NC,Ms Myra Thompson (Transportation Manager),mthomps@co.guilford.nc.us,http://www.co.guilford.nc.us/,(336)641-3094,"1203 Maple St, Rm 120, Greensboro, NC 27405"
Greensboro Transit Authority,GTA,Greensboro,NC,Ms. Elizabeth James (Public Transportation Manager),libby.james@greensboro-nc.gov,http://www.greensboro-nc.gov/,(336)373-2820,"300 East Friendly Avenue, Greensboro, NC 27402"
High Point Transit,Hi tran,High Point,NC,"Mr. Mark McDonald, P.E. (Transportation Director)",mark.mcdonald@highpointnc.gov,http://www.high-point.net/hitran,(336)883-3225,"716 West Kivett Drive, High Point, NC 27262"
Davidson County Transportation,DCTS,Lexington,NC,Mr. George Hodges (Transportation Manager Davidson County Transportation System),george.hodges@davidsoncountync.gov,http://www.co.davidson.nc.us/,(336)242-2252,"925 North Main Street, Lexington, NC 27293"
Capital Area Transit,CAT,Raleigh,NC,Mr. Scott McClellan (General Manager),Scott.Mcclellan@ci.raleigh.nc.us,http://www.raleigh-nc.org/transit,(919)833-5713,"1430 South Blount Street, Raleigh, NC 27603"
North Carolina State University Transportation Department,NCSU,Raleigh,NC,Mr. Tom Kendig (Director of Transportation),tom_kendig@ncsu.edu,http://www.ncsu.edu/transportation,(919)515-1364,"2721 Sullivan Drive CB 7221, Raleigh, NC 27695"
Research Triangle Regional Public Transportation Authority,TTA,Research Triangle Park,NC,Mrs. Saundra Freeman (Director Financial and Administrative Services),sfreeman@ridetta.org,http://www.ridetta.org/,(919)485-7415,"68 Alexander Drive, Research Triangle Park, NC 27709"
Cape Fear Public Transportation Authority,Wave,Wilmington,NC,Mr. Albert Eby (Director),aeby@wavetransit.com,http://www.wavetransit.com/,(910)202-2035,"P.O. Box 12630, Wilmington, NC 28405"
Winston-Salem Transit Authority - Trans-Aid of Forsyth County,WSTA,Winston-Salem,NC,Mr. Art Barnes (General Manager),abarnes@wstransit.com,http://www.wstransit.com/,(336)727-2648,"1060 North Trade Street, Winston-Salem, NC 27101"
Department of Transportation and Public Works,DTPW,San Juan,PR,Eng. Ruben Hernandez-Gregorat (Secretary),rahernandez@act.dtop.gov.pr,http://www.dtop.gov.pr/,(787)725-7112,"Minillas Station, San Juan, PR 00940"
Metropolitan Bus Authority,MBA,San Juan,PR,Mr. Mike O'Neill-Rosa (Chief Executive Officer),moneill@ama.gobierno.pr,http://www.dtop.gov.pr/AMA/Amahompg.htm,(787)767-0115,"San Juan, PR 00919"
Puerto Rico Highway and Transportation Authority,PRHTA,San Juan,PR,Mrs. Evelyn Colon-Berlingerie (Executive Sub Director),EColon@act.dtop.gov.pr,http://www.dtop.gov.pr/,787-729-1539,"San Juan, PR 00940"
Puerto Rico Ports Authority,PRPA,San Juan,PR,Mr. Fernando Bonilla Esquire (Executive Director),fjbonilla@prpa.gobierno.pr,http://www.prpa.gobierno.pr/,(787)729-8805,"calla limberg 64 Isla Grande, San Juan, PR 00936"
Charleston Area Regional Transportation Authority,CARTA,Charleston,SC,Mr. Howard Chapman (Executive Director),chapmanh@ci.charleston.sc.us,http://www.ridecarta.com/,(843)724-7420 Ext:4,"36 John Street, Charleston, SC 29403"
Central Midlands Regional Transit Authority,CMRTA,Columbia,SC,Ms. Mitzi Javers (CMRTA Executive Director),mitzij@goCMRTA.com,http://www.gocmrta.com/,(803)255-7133,"Columbia, SC 29201"
Waccamaw Regional Transportation Authority,The Coast RTA,Conway,SC,"Mr. Myers Rollins, Jr. (General Manager)",rollins@coastrta.com,http://www.coastrta.com/,(843)488-0865 Ext:227,"1418 Third Avenue, Conway, SC 29526"
Pee Dee Regional Transportation Authority,PDRTA,Florence,SC,Mrs. Janice Baroody ( Executive Director ),janicebaroody@pdrta.org,http://www.pdrta.org/,(843)664-5718,"313 Stadium Road, Florence, SC 29503"
Greenville Transit Authority,GTA,Greenville,SC,Mr. Carl Jackson (Director of Transportation),bwatson@greenvillesc.gov,http://www.greenvilletransit.com/,(864)467-2700,"24 Vardry Street Suite 105, Greenville, SC 29601"
Spartanburg County Transportation Services,sctsb,Spartanburg,SC,Mr. Darryl Breed (County Administrator),GBreed@SpartanburgCounty.org,http://www.spartanburgcounty.org/,(803)596-2526,"366 North Church Street Suite 700, Spartanburg, SC 29303"
Spartanburg Transit System,SPARTA,Spartanburg,SC,Mr. Marc Keenan (General Manager),mkeenan3@charter.net,http://www.spartabus.com/,(864)595-2710,"150 Airflow Drive, Spartanburg, SC 29304"
Santee Wateree Regional Transportation Authority,SWRTA,Sumter,SC,Ms. Ann August (Executive Director),aaugust@swrta.com,http://www.swrta.com/,(803)934-0396 Ext:100,"129 South Harvin Street, Sumter, SC 29151"
Chattanooga Area Regional Transportation Authority,CARTA,Chattanooga,TN,Mr. Thomas Dugan (Executive Director),tomdugan@gocarta.org,http://www.gocarta.org/,(423)629-1411,"1617 Wilcox Boulevard, Chattanooga, TN 37406"
Clarksville Transit System,CTS,Clarksville,TN,Mr. Jimmy Smith (Director),jsmith@cityofclarksville.com,http://www.cityofclarksville.com/,(931)553-2430 Ext:101,"430 Boillin Lane, Clarksville, TN 37040"
Jackson Transit Authority,JTA,Jackson,TN,Mr. Johnny Gullett (General Manager),jgullett@ridejta.com,http://www.ridejta.com/,(731)423-0200 Ext:104,"241 East Deaderick Street, Jackson, TN 38301"
Johnson City Transit System,JCT,Johnson City,TN,Ms. Eldonna Janutolo (Director),jct99@johnsoncitytransit.org,http://www.johnsoncitytransit.org/,(423)434-6260,"137 West Market Street, Johnson City, TN 37604"
Kingsport Area Transit System,K.A.T.S.,Kingsport,TN,Mr. John Campbell (City Manager),taylor@ci.kingsport.tn.us,http://www.kingsporttransit.org/,(423)229-9400,"225 West Center Street 109 Clay Street, Kingsport, TN 37660"
Knoxville Area Transit,KAT,Knoxville,TN,Mrs. Cindy McGinnis (General Manager),cmcginnis@katbus.com,http://www.katbus.com/,(865)215-7824,"1135 Magnolia Avenue, Knoxville, TN 37917"
Memphis Area Transit Authority,MATA,Memphis,TN,"Mr. William Hudson, Jr. (President/General Manager)",whudson@matatransit.com,http://www.matatransit.com/,(901)722-7111,"1370 Levee Road, Memphis, TN 38108"
Metropolitan Transit Authority,MTA,Nashville,TN,Mr. Paul Ballard (Chief Executive Officer),Paul.Ballard@Nashville.gov,http://www.nashvillemta.org/,(615)862-6262,"130 Nestor Street, Nashville, TN 37210"
Regional Transportation Authority,RTA,Nashville,TN,Mr. Paul Ballard (CEO of MTA),paul.j.ballard@nashville.gov,http://www.rtarelaxandride.com/,615-862-6262,"501 Union Street Sixth Floor, Nashville, TN 37219"
Pace - Suburban Bus Division,PACE,Arlington Heights,IL,Mr. Thomas Ross (Executive Director),t.j.ross@pacebus.com,http://www.pacebus.com/,(847)228-2301,"550 West Algonquin Road, Arlington Heights, IL 60005"
"Pace-Suburban Bus Division, ADA Paratransit Services",PACE,Arlington Heights,IL,Mr. Thomas Ross (Executive Director),t.j.ross@pacebus.com,http://www.pacebus.com/,847-228-2301,"550 West Algonquin Road, Arlington Heights, IL 60005"
Bloomington-Normal Public Transit System,B-NPTS,Bloomington,IL,Mr. Peter Weber (General Manager),pweber.peteweber@verizon.net,http://www.b-npts.com/,(309)828-9331,"104 East Oakland Avenue, Bloomington, IL 61701"
River Valley Metro Mass Transit District,RVMMTD,Bourbonnais,IL,Mr. Robert Hoffmann (Managing Director),managingdirector@rivervalleymetro.com,http://www.rivervalleymetro.com/,(815)935-1403 Ext:281,"1137 E. 5000 N. Road, Bourbonnais, IL 60914"
Chicago Transit Authority,CTA,Chicago,IL,Mr. Richard Rodriguez (President),rlrodriguez@transitchicago.com,http://www.transitchicago.com/,(312)681-5000 Ext:5000,"567 West Lake Street, Chicago, IL 60680"
Northeast Illinois Regional Commuter Railroad Corporation,Metra,Chicago,IL,Mr. Philip Pagano (Executive Director),metra1rr@metrarr.com,http://metrarail.com/,(312)322-6979,"547 West Jackson Boulevard, Chicago, IL 60661"
City of Danville/Danville Mass Transit,DMT,Danville,IL,Mr. Scott Eisenhauer (Mayor),mayor@cityofdanville.org,http://www.cityofdanville.org/,(217)431-2400,"101 North Jackson, Danville, IL 61832"
City of DeKalb,DSATS,DeKalb,IL,Mr. Mark Biernacki (City Manager),Mark.Biernacki@cityofdekalb.com,http://www.cityofdekalb.com/,(815)748-2090,"200 South Fourth Street, DeKalb, IL 60115"
Decatur Public Transit System,DPTS,Decatur,IL,Mr. Ryan McCrady (City Manager),RMcCrady@decaturil.gov,http://www.decaturil.gov/,(217)424-2801,"555 East Wood Street, Decatur, IL 62523"
Madison County Transit District,MCT,Granite City,IL,Mr. Jerry Kane (Managing Director),jkane@mct.org,http://www.mct.org/,(618)874-7433,"One Transit Way, Granite City, IL 62040"
Rock Island County Metropolitan Mass Transit District,MetroLink,Moline,IL,Mr. Jeffrey Nelson (General Manager),jnelson@qcmetrolink.com,http://www.qcmetrolink.com/,(309)788-3360 Ext:301,"1515 River Drive, Moline , IL 61265"
Pekin Municipal Bus Service,COP,Pekin,IL,Mr. Gregory Ranney (Director of Public Property),granney@ci.pekin.il.us,http://ci.pekin.il.us/,(309)478-5420,"1130 Koch Street, Pekin, IL 61554"
Greater Peoria Mass Transit District,CityLink,Peoria,IL,Mr. Thomas Lucek (General Manager),tlucek@ridecitylink.org,http://www.ridecitylink.org/,(309)679-8158,"2105 Northeast Jefferson Street, Peoria, IL 61603"
Rockford Mass Transit District,RMTD,Rockford,IL,Mr. Richard McVinnie (Executive Director),RMcVinnie@rmtd.org,http://www.rmtd.org/,(815)961-2230,"Rockford, IL 61101"
Springfield Mass Transit District,SMTD,Springfield,IL,Ms. Linda Tisdale (Managing Director),LTisdale@SMTD.ORG,http://www.smtd.org/,(217)522-6087,"928 South Ninth Street, Springfield, IL 62703"
Champaign-Urbana Mass Transit District,C-U MTD,Urbana,IL,Mr. William Volk (Managing Director),bvolk@cumtd.com,http://www.cumtd.com/,(217)384-8188,"1101 East University Avenue, Urbana, IL 61802"
City of Anderson Transportation System,CATS,Anderson,IN,Mr. Kris Ockomon (Mayor),krisockomon@cityofanderson.com,http://www.cityofanderson.com/CATS,(765)648-6000,"120 East Eighth Street 530 Baxter Road, Anderson, IN 46016"
Bloomington Public Transportation Corporation,BT,Bloomington,IN,Mr. Lew May (General Manager),mayl@bloomingtontransit.com,http://www.bloomingtontransit.com/,(812)332-5688,"130 West Grimes Lane, Bloomington, IN 47403"
Northern Indiana Commuter Transportation District,NICTD,Chesterton,IN,Mr. Gerald Hanas (General Manager),gerald.hanas@nictd.com,http://www.nictd.com/,(219)926-5744,"33 East U.S. Highway 12, Chesterton, IN 46304"
"South Lake County Community Services, Inc.",SLCCS,Crown Point,IN,Ms. Margot Sabato (Executive Director),slccs@sbcglobal.net,,(219)663-0627,"1450 E. Joliet Street Suite 202, Crown Point, IN 46307"
Northwest Indiana Community Action Corporation,NWICA,Crown Point,IN,Mr. Gary Olund (Executive Director),golund@nwi-ca.org,http://www.nwi-ca.com/,(219)794-1829,"5240 Fountain Drive, Crown Point, IN 46307"
East Chicago Transit,ECT,East Chicago,IN,Mr. Francisco Rosado Jr. (Director),FRosado@eastchicago.com,http://www.eastchicago.com/,(219)391-8465,"5400 Cline Avenue, East Chicago, IN 46312"
Metropolitan Evansville Transit System,METS,Evansville,IN,Mr. William Brodwater IV (Director),WBrodwater@evansvillegov.org,http://www.evansvillegov.org/Index.aspx?page=57,(812)435-6166 Ext:225,"601 John Street, Evansville, IN 47713"
Fort Wayne Public Transportation Corporation,Citilink,Fort Wayne,IN,Mr. Kenneth Housden (General Manager),kch@fwcitilink.com,http://www.fwcitilink.com/,(260)432-4977 Ext:240,"801 Leesburg Road, Fort Wayne, IN 46808"
Gary Public Transportation Corporation,GPTC,Gary,IN,Mr. Daryl Lampkins (General Manager),dlampkins@gptcbus.com,http://www.gptcbus.com/,(219)885-7555 Ext:213,"100 West 4th Avenue, Gary, IN 46402"
Hammond Transit System,HTS,Hammond,IN,Mr. Keith Matasovsky (Director),matasovskyk@gohammond.com,http://www.gohammond.com/,(219)853-6401,"425 Sibley Street, Hammond, IN 46320"
North Township of Lake County Dial-A-Ride,,Hammond,IN,Mr. Frank Mrvan (North Township Trustee),polgarl@ntto.net,http://www.northtownshiptrustee.com/,(219)932-2530 Ext:324,"5947 Hohman Avenue, Hammond, IN 46320"
Indianapolis and Marion County Public Transportation,IndyGo,Indianapolis,IN,Mr. Michael Terry (President and CEO),mterry@indygo.net,http://www.indygo.net/,(317)614-9310,"1501 West Washington Street, Indianapolis, IN 46222"
City of Kokomo,COK,Kokomo,IN,Mr. Gregory Goodnight (Mayor),khcgcc@aol.com,http://www.cityofkokomo.org/,(765)456-7444,"100 South Union Street, Kokomo, IN 46901"
Greater Lafayette Public Transportation Corporation,CityBus,Lafayette,IN,Mr. Martin Sennett (General Manager),msennett@gocitybus.com,http://www.gocitybus.com/,(765)423-2666 Ext:203,"1250 Canal Road, Lafayette, IN 47902"
Muncie Indiana Transit System,MITS,Muncie,IN,Mr. Larry King (General Manager),lking@mitsbus.org,http://www.mitsbus.org/,(765)282-2762 Ext:206,"1300 East Seymour Street, Muncie, IN 47302"
Michiana Area Council of Governments,MACOG,South Bend,IN,Ms. Sandra Seanor (Executive Director),sseanor@macog.com,http://www.macog.com/,(574)287-1829 Ext:234,"227 West Jefferson Boulevard County-City Building, Room 1120, South Bend, IN 46601"
South Bend Public Transportation Corporation,Transpo,South Bend,IN,Mr. William Brown (General Manager),wbrown@sbtranspo.com,http://www.sbtranspo.com/,(574)239-2307,"901 East Northside Boulevard, South Bend, IN 46617"
Terre Haute Transit Utility,THTU,Terre Haute,IN,Mr. Duke Bennett (Mayor),duke.bennett@terrhaute.in.gov,http://www.terrehaute.in.gov/,(812)232-9467,"901 South 14th Street, Terre Haute, IN 47807"
"Opportunity Enterprises, Inc.",OE,Valparaiso,IN,Mr. Gary Mitchell (President/CEO),gary.mitchell@oppent.org,http://www.oppent.org/,(219)464-9621 Ext:236,"2801 Evans Avenue, Valparaiso, IN 46383"
"Porter County Aging and Community Services, Inc.",PCACS,Valparaiso,IN,Mr Bruce Lindner (Executive Director),bhlindner@verizon.net,http://www.portercountyacs.org/,(219)465-7144,"1005 Campbell, Valparaiso, IN 46385"
Ann Arbor Transportation Authority,AATA,Ann Arbor,MI,Ms. Dawn Gabay (Executive Director),dgabay@aata.org,http://www.aata.org/,(734)973-6500,"2700 South Industrial Highway, Ann Arbor, MI 48104"
University of Michigan Parking and Transportation Services,UMTS,Ann Arbor,MI,Mr. Timothy Slottow (Chief Financial Officer),tslottow@umich.edu,http://www.pts.umich.edu/,(734)764-7270,"777 North University Campus Box 1611, Ann Arbor, MI 48104"
Battle Creek Transit,BCT,Battle Creek,MI,Mr. Ken Tsuchiyama ( City Manager),khtsuchiyama@ci.battle-creek.mi. us,http://www.battlecreektransit.com/,(269)966-3378,"339 West Michigan, Battle Creek, MI 49017"
Bay Metropolitan Transit Authority,Bay Metro,Bay City,MI,Mr. Michael Stoner (General Manager),mstoner@baymetro.com,http://www.baymetro.com/,(989)894-2900 Ext:1213,"1510 North Johnson Street, Bay City, MI 48708"
Twin Cities Area Transportation Authority,TCATA,Benton Harbor,MI,Mr. Billy Purvis (Executive Director),purvisb@tcata.net,,(269)927-2268,"275 East Wall Street, Benton Harbor, MI 49022"
City of Detroit Department of Transportation,DDOT,Detroit,MI,Ms. Lovevett Williams (Interim Director),lo7951@sbcglobal.net,http://www.ci.detroit.mi.us/DDOT,(313)833-7666,"1301 East Warren, Detroit, MI 48207"
Detroit Transportation Corporation,Detroit People Mover,Detroit,MI,Ms. Barbara Hansen (General Manager),BHansen@thepeoplemover.com,http://www.thepeoplemover.com/,(313)224-2190,"1420 Washington Boulevard Third Floor, Detroit, MI 48226"
Suburban Mobility Authority for Regional Transportation,SMART,Detroit,MI,Mr. Steve Brown (Interim General Manager),sbrown@smartbus.org,http://www.smartbus.org/,(313)223-2108,"535 Griswold Suite 600, Detroit, MI 48226"
Mass Transportation Authority,MTA,Flint,MI,Mr. Robert Foy (General Manager),rfoy@mtaflint.org,http://www.mtaflint.org/,(810)780-8813,"1401 South Dort Highway, Flint, MI 48503"
City of Grand Haven Harbor Transit,,Grand Haven,MI,Mr. Tom Manderscheid (Transportation Director),tmanderscheid@grandhaven.org,http://www.grandhaven.org/Grand-Haven-City-Hall/departments/harbor-transit,(616)842-3220,"440 North Ferry Street, Grand Haven, MI 49417"
Interurban Transit Partnership,The Rapid,Grand Rapids,MI,Mr. Peter Varga (CEO),pvarga@ridetherapid.org,http://www.ridetherapid.org/,(616)456-7514 Ext:1157,"300 Ellsworth Avenue, S.W., Grand Rapids, MI 49503"
City of Holland Macatawa Area Express,MAX,Holland,MI,Ms. Jodi Syens (Director of Transportation Services),j.syens@cityofholland.com,http://www.cityofholland.com/,(616)928-2400,"City Hall 270 South River Avenue, Holland, MI 49423"
Livingston Essential Transportation Service,LETS,Howell,MI,Mr. Douglas Britz (Director),dbritz@co.livingston.mi.us,http://www.co.livingston.mi.us/LETS,(517)540-7847,"3950 W. Grand River Avenue, Howell, MI 48855"
City of Jackson Transportation Authority,JTA,Jackson,MI,Mr. Cameron McCollum (General Manager),cameron.mccollum@jacksontransit.com,http://www.jacksontransit.com/,(517)787-8363,"2350 East High Street, Jackson, MI 49203"
Kalamazoo Metro Transit System,Metro Transit,Kalamazoo,MI,Mr. William Schomisch (Director of Public Transportation),schomischw@kalamazoocity.org,http://www.kalamazoocity.org/,(269)337-8407,"530 North Rose Street, Kalamazoo, MI 49007"
Capital Area Transportation Authority,CATA,Lansing,MI,Ms. Sandra Draggoo (Executive Director),sdraggoo@cata.org,http://www.cata.org/,(517)394-1100,"4615 Tranter Avenue, Lansing, MI 48910"
Muskegon Area Transit System,MATS,Muskegon Heights,MI,Mr. James Elwell (Interim Administrator),elwellja@co.muskegon.mi.us,http://www.matsbus.com/,(231)724-6504,"2624 Sixth Street, Muskegon Heights, MI 49444"
Niles Dial-A-Ride,DART,Niles,MI,Mr. Michael McCauslin (Mayor),snaugle@nilesmi.org,http://http//www.ci.niles.mi.us/DeptsAndServices/NilesDialARide/DialARide.htm,(269)683-4700,"623 North Second Street, Niles, MI 49120"
Blue Water Area Transportation Commission,Blue Water Area Transit,Port Huron,MI,Mr. Jim Wilson (General Manager),jwilson@bwbus.com,http://www.bwbus.com/,(810)987-7373 Ext:103,"2021 Lapeer Avenue, Port Huron, MI 48060"
Saginaw Transit Authority Regional Service,STARS,Saginaw,MI,Mr. Sylvester Payne (General Manager/CEO),spayne@saginaw-stars.com,http://www.saginaw-stars.com/,(989)907-4000 Ext:207,"615 Johnson Street 301 East Genesee, Suite 100, Saginaw, MI 48607"
Clinton Area Transit System,Clinton Transit,St. Johns,MI,Mrs. Rose May Mason (General Manager),generalmanager@clintontransit.com,,(989)224-3161,"304 N. Brush St., St. Johns, MI 48879"
Duluth Transit Authority,DTA,Duluth,MN,Mr. Dennis Jensen (General Manager),djensen@duluthtransit.com,http://www.duluthtransit.com/,(218)722-4426 Ext:306,"2402 West Michigan Street, Duluth, MN 55806"
Metro Transit,,Minneapolis,MN,Mr. Brian Lamb (General Manager),brian.lamb@metc.state.mn.us,http://www.metrotransit.org/,(612)349-7510,"560 Sixth Avenue, North, Minneapolis, MN 55411"
City of Moorhead Transit,MAT,Moorhead,MN,Mr. Michael Redlinger (City Manager),michael.redlinger@ci.moorhead.mn.us,http://www.ci.moorhead.mn.us/,(218)299-5305,"500 Center Avenue, Moorhead, MN 56561"
City of Rochester Public Transportation,,Rochester,MN,Mr. Ardell Brede (Mayor),abrede@rochestermn.gov,http://www.rochestermn.gov/,507-328-2700,"201 4th Street, S.E. Room 108, Rochester, MN 55904"
St. Cloud Metropolitan Transit Commission,Metro Bus,St. Cloud,MN,Mr. David Tripp (Executive Director),dtripp@stcloudmtc.com,http://www.stcloudmtc.com/,(320)529-4482,"665 Franklin Avenue, N.E., St. Cloud, MN 56304"
Metro Mobility,,St. Paul,MN,Mr. Tom Weaver (Regional Administrator),tom.weaver@metc.state.mn.us,http://www.metrocouncil.org/,(651)602-1723,"Metropolitan Council 390 North Robert Street, St. Paul, MN 55101"
Metropolitan Council,,St. Paul,MN,Mr. Tom Weaver (Regional Administrator),tom.weaver@metc.state.mn.us,http://www.metrocouncil.org/,(651)602-1723,"390 Robert St N, St. Paul, MN 55101"
Metro Regional Transit Authority,Metro,Akron,OH,Mr. Robert Pfaff (Executive Director/Secretary-Treasurer),robert.pfaff@akronmetro.org,http://www.akronmetro.org/,(330)762-7267 Ext:3100,"416 Kenmore Boulevard, Akron, OH 44301"
Clermont Transportation Connection,CTC,Batavia,OH,Mr. Benjamin Capelle (Director),bcapelle@co.clermont.oh.us,http://http//ctc.clermontcountyohio.gov/,(513)732-7577,"4003 Filager Road, Batavia, OH 45103"
Brunswick Transit Alternative,BTA,Brunswick,OH,Mr. Robert Zienkowski (City Manager),Zienkowski@brunswick.oh.us,http://www.brunswick.oh.us/,(330)225-9144,"4095 Center Road, Brunswick, OH 44212"
Stark Area Regional Transit Authority,SARTA,Canton,OH,Mr. Thomas Bernabei (Executive Director),tbernabei@sartaonline.com,http://www.sartaonline.com/,(330)454-6132 Ext:522,"1600 Gateway Boulevard, S.E., Canton, OH 44707"
Southwest Ohio Regional Transit Authority,SORTA / Metro,Cincinnati,OH,Ms. Marilyn Shazor (Chief Executive Officer/General Manager),mshazor@go-metro.com,http://www.go-metro.com/,(513)632-7510,"602 Main Street Suite 1100, Cincinnati, OH 45202"
The Greater Cleveland Regional Transit Authority,GCRTA,Cleveland,OH,Mr. Joseph Calabrese (CEO-Gen. Manager/Sec. Treasurer),jcalabrese@gcrta.org,http://www.riderta.com/,(216)566-5218,"1240 West 6th Street, Cleveland, OH 44113"
Central Ohio Transit Authority,COTA,Columbus,OH,Mr. William Lhota (President and CEO),lhotawj@cota.com,http://www.cota.com/,(614)275-5850,"1600 McKinley Avenue, Columbus, OH 43222"
Greater Dayton Regional Transit Authority,GDRTA,Dayton,OH,Mr. Mark Donaghy (Executive Director),mdonaghy@greaterdaytonrta.org,http://www.greaterdaytonrta.org/,(937)425-8390,"4 South Main Street, Dayton, OH 45402"
Lorain County Transit,LCT,Elyria,OH,Mr. Richard Enty (Interim General Manager),lctdirector@loraincounty.us,http://www.loraincounty.us/,440-328-2493,"226 Middle Avenue, Elyria, OH 44035"
Laketran,,Grand River,OH,Mr. Raymond Jurkowski (General Manager),rjurkowski@laketran.com,http://www.laketran.com/,(440)350-1000,"555 Lake Shore Blvd, Grand River, OH 44045"
Butler County Regional Transit Authority,BCRTA,Hamilton,OH,Ms. Carla Lakatos (Executive Director),lakatoscl@butlercountyohio.org,http://www.butlercountyshuttle.org/,(513)785-5226,"3045 Moser Court Hamilton Enterprise Park, Hamilton, OH 45011"
Portage Area Regional Transportation Authority,PARTA,Kent,OH,"Mr. John Drew, Jr. (General Manager)",jdrew@partaonline.org,http://www.partaonline.org/,(330)678-7745 Ext:115,"2000 Summit Road, Kent, OH 44240"
Richland County Transit,RCT,Mansfield,OH,Ms. Kathy Adams (Fiscal Officer),kadams@rcrpc.org,http://www.rcrpc.org/RCT/routes.html,(419)774-6396,"35 North Park Street, Mansfield, OH 44902"
City of Middletown - Middletown Transit System,MTS,Middletown,OH,Ms. Judy Gilleland (City Manager),judyg@cityofmiddletown.org,http://www.cityofmiddletown.org/,(513)425-7836,"One Donham Plaza, Middletown, OH 45042"
Licking County Transit Board,LCTB,Newark,OH,Mr Timothy Bubb (Chairman),tbubb@lcounty.com,http://www.lcounty.com/,(740)670-5118,"763 East Main Street, Newark, OH 43055"
City of Newark Transit Operations,,Newark,OH,"Mr. Bob Diebold (Mayor, City of Newark)",bdiebold@newarkohio.net,http://www.earthworkstransit.org/,(740)670-7510,"40 West Main Street First Floor, Newark, OH 43055"
Sandusky Transit System,STS,Sandusky,OH,Ms. Carrie Handy (Chief Planner),chandy@ci.sandusky.oh.us,http://www.ci.sandusky.oh.us/,(419)627-5873,"City of Sandusky 222 Meigs Street, Sandusky, OH 44870"
Springfield City Area Transit,SCAT,Springfield,OH,Mr. James Bodenmiller (City Manager),jbodenmiller@ci.springfield.oh.us,http://www.scatrideline.com/,937-327-7700,"100 Jefferson Street, Springfield, OH 45501"
Steel Valley Regional Transit Authority,Steel Valley RTA,Steubenville,OH,Mr. Frank Bovina (Transit Manager),fbovina@sbcglobal.net,http://www.bhjmpc.org/Transportation/Transit/svrta.htm,(740)282-6145,"555 Adams Street, Steubenville, OH 43952"
Toledo Area Regional Transit Authority,TARTA,Toledo,OH,Mr. James Gee (General Manager),jgee@tarta.com,http://www.tarta.com/,(419)245-5222 Ext:222,"1127 West Central Avenue, Toledo, OH 43697"
Miami County Public Transit,MCPT,Troy,OH,Ms. Elaine Carter (Transit Director),ecarter@co.miami.oh.us,http://co.miami.oh.us/,937-440-3552,"510 West Water Street Suite 150, Troy, OH 45373"
Greene County Transit Board,Greene CATS,Xenia,OH,Mr. Richard Schultze (Executive Director),rschultze@co.greene.oh.us,http://www.co.greene.oh.us/greenecats,(937)562-6463,"571 Ledbetter Rd., Xenia, OH 45385"
Western Reserve Transit Authority,WRTA,Youngstown,OH,Mr. James Ferraro (Executive Director),jferraro@wrtaonline.com,http://www.wrtaonline.com/,(330)744-8431 Ext:109,"604 Mahoning Avenue, Youngstown, OH 44502"
City of Appleton - Valley Transit,,Appleton,WI,Ms. Deborah Wetter (General Manager),deborah.wetter@appleton.org,http://www.appleton.org/vt,(920)832-2291,"801 S.Whitman Avenue, Appleton, WI 54914"
City of Beloit Transit System,BTS,Beloit,WI,Mr. Larry Arft (City Manager),presnyl@ci.beloit.wi.us,http://www.beloittransit.com/,(608)364-6616,"1225 Willowbrook Road, Beloit, WI 53511"
Chippewa Falls General Public Shared-Ride Taxi System,CFTN,Chippewa Falls,WI,Mr. Jayson Smith (Transit Manager),jsmith@chippewafalls-wi.gov,http://www.chippewafalls-wi.gov/,(715)726-2729,"30 West Central Street, Chippewa Falls, WI 54729"
Eau Claire Transit,ECT,Eau Claire,WI,Mr. Mike Huggins (City Manager),gvandenh@ci.eau-claire.wi.us,http://www.ci.eau-claire.wi.us/,(715)839-5111,"910 Forest Street, Eau Claire, WI 54703"
Fond du Lac Area Transit,Fond du Lac Area Transit,Fond du Lac,WI,Ms. Lynn Gilles (Transit Manager),Lgilles@ci.fond-du-lac.wi.us,http://ci.fond-du-lac.wi.us/,(920)322-3652,"530 North Doty Street, Fond du Lac, WI 54935"
Green Bay Metro,GBM,Green Bay,WI,Mr. Christopher Phelps (General Manager),chrisph@ci.green-bay.wi.us,http://www.ci.green-bay.wi.us/,(920)448-3454,"901 University Avenue, Green Bay, WI 54302"
Janesville Transit System,JTS,Janesville,WI,Ms. Jennifer Petruzzello (Neighborhood Services Director),petruzzelloj@ci.janesville.wi.us,http://www.ci.janesville.wi.us/,(608)755-3038,"900 North Parker Drive, Janesville, WI 53545"
Kenosha Transit,KT,Kenosha,WI,Mr. Len Brandrup (Director of Transportation),lbrandrup@kenosha.org,http://www.kenosha.org/,(262)653-4290,"4303 39th Avenue, Kenosha, WI 53144"
LaCrosse Municipal Transit Utility,La Crosse MTU,LaCrosse,WI,Mr. Matt Harter (Mayor),harterm@cityoflacrosse.org,http://www.cityoflacrosse.org/,(608)789-7567,"2000 Marco Drive, LaCrosse, WI 54601"
Metro Transit System,Metro,Madison,WI,Mr. Charles Kamp (Transit General Manager),ckamp@cityofmadison.com,http://www.mymetrobus.com/,(608)267-4904,"1245 East Washington Avenue Suite 201, Madison, WI 53703"
Milwaukee County Transit System,MCTS,Milwaukee,WI,Mrs. Anita Gulotta-Connelly (Managing Director),AGulotta-Connelly@mcts.org,http://www.ridemcts.com/,(414)937-3205,"1942 North 17th Street, Milwaukee, WI 53205"
Oshkosh Transit System,OTS,Oshkosh,WI,Mr. Christopher Strong (Transportation Director),cstrong@ci.oshkosh.wi.us,http://www.ci.oshkosh.wi.us/,(920)232-5342,"926 Dempsey Trail, Oshkosh, WI 54902"
Ozaukee County Transit Services,OCT,Port Washington,WI,Mr. Robert Dreblow (Ozaukee County Highway Commissioner),bdreblow@co.ozaukee.wi.us,http://www.ozaukeetransit.com/,(262)284-8334,"410 South Spring Street, Port Washington, WI 53074"
Belle Urban System - Racine,The Bus,Racine,WI,Mr. Thomas Friedel (Mayor),thomas.friedel@cityofracine.org,http://www.racinetransit.com/,(262)636-9111,"730 Washington Avenue Attn. Kathy Kasper, Racine, WI 53403"
Sheboygan Transit System,,Sheboygan,WI,Mr. Ron McDonald (Director),rmcdonald@ci.sheboygan.wi.us,http://www.sheboygantransit.com/,(920)459-3285,"608 South Commerce Street, Sheboygan, WI 53081"
City of Waukesha Transit Commission,Waukesha Metro Transit,Waukesha,WI,Mr. Robert Johnson (Transit Director),rjohnson@ci.waukesha.wi.us,http://www.waukeshametro.org/,(262)524-3594,"2311 Badger Drive, Waukesha, WI 53188"
Wausau Area Transit System,WATS,Wausau,WI,Mr. Greg Seubert (Transit Director),gsseubert@charter.net,http://http//metroride.ci.wausau.wi.us,(715)842-9287,"420 Plumer Street, Wausau, WI 54403"
Washington County Transit,,West Bend,WI,Mr. Joseph Steier (Transit Manager),Joseph.Steier@co.washington.wi.us,http://www.co.washington.wi.us/,(262)335-7700,"900 Lang Street, West Bend, WI 53090"
"University of Arkansas, Fayetteville",Razorback Transit,Fayetteville,AR,Mr. David Martinson (Associate Vice Chancellor for Business),dom@uark.edu,http://http//parking.uark.edu,(501)575-2551,"155 Razorback Road ADSB 131, Fayetteville, AR 72701"
Fort Smith Transit,FST,Fort Smith,AR,Mr. Ken Savage (Transit Director),ksavage@fortsmithar.gov,http://www.fortsmithar.gov/,(479)784-2320,"6821 Jenny Lind, Fort Smith, AR 72902"
Central Arkansas Transit Authority,CATA,North Little Rock,AR,Mrs. Betty Wineland (Executive Director),bwineland@cat.org,http://www.cat.org/,(501)375-6717 Ext:223,"901 Maple Street, North Little Rock, AR 72114"
Pine Bluff Transit,PBT,Pine Bluff,AR,"Mr. Carl Redus, Jr. (Mayor)",carlr@cityofpinebluff.com,http://www.cityofpinebluff.com/pbtransit/,(870)543-1800,"2300 East Harding, Pine Bluff, AR 71601"
Ozark Regional Transit,ORT,Springdale,AR,Mr. Phil Pumphrey (Executive Director),ppumphrey@ozark.org,http://www.ozark.org/,(479)756-5901 Ext:247,"2423 East Robinson Avenue, Springdale, AR 72765"
City of Alexandria,Atrans,Alexandria,LA,Mr. T W Thompson (Chief Administrative Officer),TW.Thompson@cityofalex.com,http://www.cityofalexandriala.com/,(318)441-6010,"2021 Industrial Park Road, Alexandria, LA 71309"
Capital Area Transit System,CATS,Baton Rouge,LA,Mr. John Denman (CEO),johnd@brcats.com,http://www.brcats.com/,(225)389-8927,"2250 Florida Boulevard, Baton Rouge, LA 70802"
Jefferson Parish Department of Transit Administration,Jet,Gretna,LA,Mr. Ryan Brown (Transit Director),RDBrown@jeffparish.net,http://www.jeffersontransit.org/,(504)364-3450,"21 Westbank Expressway, Gretna, LA 70053"
Terrebonne Parish Consolidated Government,Good Earth Transit,Houma,LA,Mr. Wendell Voisin (Public Transit Administrator),wvoisin@tpcg.org,http://www.tpcg.org/,(985)850-4616,"1 McCord Rd., Houma, LA 70361"
Lafayette Transit System,LTS,Lafayette,LA,"Mr. Tony Tramel, P.E. (Director of Traffic & Transportation)",ttramel@lafayettegov.com,http://www.lafayettela.gov/,(337)291-8546,"100 Lee Avenue, Lafayette, LA 70502"
City of Monroe Transit System,MTS,Monroe,LA,Mr. James Mayo (Mayor),james.mayo@ci.monroe.la.us,http://www.mtsbus.org/,(318)329-2310,"700 Washington Street, Monroe, LA 71201"
Crescent City Connection Division - Louisiana Department of Transportation,CCCD,New Orleans,LA,Ms. Peggy Olivier (Acting Executive Director),peggy.olivier@la.gov,http://www.dotd.state.la.us/operations/cccd/home.asp,(504)376-8101,"2001 Mardi Gras Boulevard, New Orleans, LA 70174"
New Orleans Regional Transit Authority,NORTA,New Orleans,LA,"Mr. Justin Augustine, III (Chief Executive Officer)",justin.augustine@veoliatransportation.com,http://www.norta.com/,(504)827-8302,"2817 Canal Street, New Orleans, LA 70119"
Shreveport Area Transit System,SporTran,Shreveport,LA,Mr. Eugene Eddy (Resident Manager),gene.eddy@ci.shreveport.la.us,http://www.sportran.org/,(318)673-7400,"1115 Jack Wells Boulevard, Shreveport, LA 71107"
ABQ Ride,ABQ Ride,Albuquerque,NM,Mr. Greg Payne (Transit Director),gpayne@cabq.gov,http://www.cabq.gov/,(505)724-3100,"100 First Street SW, Albuquerque, NM 87102"
Las Cruces Area Transit,RoadRUNNER Transit,Las Cruces,NM,Mr. Michael Bartholomew (Transit Administrator),mbartholomew@las-cruces.org,http://http//www.las-cruces.org/public-services/roadrunner/index.shtm,(575)541-2537,"City of Las Cruces PO Box 20000, Las Cruces, NM 88004"
Santa Fe Trails - City of Santa Fe,SFT,Santa Fe,NM,Mr. Jon Bulthuis (Transit Division Director),jrbulthuis@santafenm.gov,http://www.santafenm.gov/,(505)955-2006,"2931 Rufina Street, Santa Fe, NM 87507"
Cleveland Area Rapid Transit,CART,Norman,OK,Ms. Theta Dempsey (CEO),tdempsey@ou.edu,http://cart.ou.edu/,(405)325-2046,"731 Elm Avenue Robertson Hall 318, Norman, OK 73019"
The Lawton Area Transit System,LATS,Lawton,OK,Mr. John Purcell (Mayor),jpurcell44@sbcglobal.net,http://www.ridelats.com/,(580)581-3301,"609 Southwest Bishop Road, Lawton, OK 73502"
Central Oklahoma Transportation and Parking Authority,COTPA,Oklahoma City,OK,Mr. Rick Cain (Administrator),rick.cain@okc.gov,http://www.gometro.org/,(405)297-3492,"300 Southwest 7th Street, Oklahoma City, OK 73109"
Metropolitan Tulsa Transit Authority,MTTA,Tulsa,OK,Mr. William Cartwright (General Manager),bcartwright@tulsatransit.org,http://www.tulsatransit.org/,(918)560-5603,"510 South Rockford, Tulsa, OK 74120"
Abilene Transit System,CityLink,Abilene,TX,Mr. Brad Patrick (General Manager),brad.patrick@abilenetx.com,http://www.abilenetx.com/citylink/,(325)676-6403,"1189 South 2nd Street, Abilene, TX 79602"
Amarillo City Transit,ACT,Amarillo,TX,Mr. Alan Taylor (City Manager),alan.taylor@ci.amarillo.tx.us,http://www.ci.amarillo.tx.us/,(806)378-3011,"801 East 23rd, Amarillo, TX 79105"
Handitran Special Transit Division - City of Arlington,Handitran,Arlington,TX,Mr. Robert Johnson (Transit Manager),bob.johnson@arlingtontx.gov,http://www.handitran.com/,(817)459-6420,"1101 West Main Street, Arlington, TX 76004"
"Dallas - VPSI, Inc.",,Arlington,TX,Mr. Jeffrey Henning (President and CEO),jeff.henning@vpsiinc.com,http://www.vpsiinc.com/,(248)597-3500,"624 Six Flags Drive Suite 220, Arlington, TX 76011"
Capital Metropolitan Transportation Authority,CMTA,Austin,TX,Mr. Doug Allen (Interim General Manager),doug.allen@capmetro.org,http://www.capmetro.org/,(512)389-7400,"2910 East Fifth Street, Austin, TX 78702"
Beaumont Municipal Transit System,BMT,Beaumont,TX,Mr. Kyle Hayes (City Manager),bmunson@beaumonttransit.com,http://www.beaumonttransit.com/,(409)835-7895,"550 Milam Street, Beaumont, TX 77701"
City of Brownsville - Brownsville Urban System,BUS,Brownsville,TX,Mr. Charlie Cabler (City Manager),charlie@cob.us,http://bus.cob.us/,(956)548-6005,"700 Jose Colunga, Jr., Street, Brownsville, TX 78521"
Brazos Transit District,The District,Bryan,TX,Mr. John McBeth (President/CEO),john@btd.org,http://www.btd.org/,(979)778-0607,"1759 North Earl Rudder Freeway, Bryan, TX 77803"
Corpus Christi Regional Transportation Authority,The B,Corpus Christi,TX,Mr. Eduardo Carrion (Chief Executive Officer),ecarrion@ccrta.org,http://www.ccrta.org/,(361)289-2712,"5658 Bear Lane, Corpus Christi, TX 78405"
Dallas Area Rapid Transit,DART,Dallas,TX,Mr. Gary Thomas (President/Executive Director),gthomas@dart.org,http://www.dart.org/,(214)749-2544,"1401 Pacific Avenue, Dallas, TX 75202"
Mass Transit Department - City of El Paso,Sun Metro,El Paso,TX,Mr. Jay Banasiak (Director),banasiakj1@elpasotexas.gov,http://www.elpasotexas.gov/,(915)534-5811,"700 A San Francisco Street, El Paso, TX 79901"
Fort Worth Transportation Authority,The T,Fort Worth,TX,Mr. Richard Ruddell (President/Executive Director ),rthornto@the-t.com,http://www.the-t.com/,(817)215-8704,"1600 East Lancaster, Fort Worth, TX 76102"
Island Transit,I T,Galveston,TX,Mr. Michael Worthy ( Director of Transportation),worthymic@cityofgalveston.org,http://www.islandtransit.net/,(409)797-3900,"3115 Market Street, Galveston, TX 77550"
City of Grand Prairie Transportation Services Department,Grand Connection,Grand Prairie,TX,Mr. Tom Hart (City Manager),thart@gptx.org,http://www.gptx.org/,(972)237-8010,"206 West Church Street, Grand Prairie, TX 75050"
"Metropolitan Transit Authority of Harris County, Texas",Metro,Houston,TX,Mr. Frank Wilson (President & CEO),FJW01@ridemetro.org,http://www.ridemetro.org/,(713)739-4899,"1900 Main, Houston, TX 77208"
"Laredo Transit Management, Inc.",El Metro,Laredo,TX,Mr. Feliciano Garcia (General Manager),fgarcia1@ci.laredo.tx.us,http://www.ci.laredo.tx.us/,(956)795-2288 Ext:234,"1301 Farragut Street 3rd Floor, West, Laredo, TX 78040"
Denton County Transportation Authority,DCTA,Lewisville,TX,Mr. Jim Witt (Interim President/CEO),jwitt@dcta.net,http://www.dcta.net/,(972)221-4600 Ext:107,"1660 S. Stemmons Suite 250, Lewisville, TX 75067"
Longview Transit,LTMI,Longview,TX,Mr. Matthew Penney (General Manager),mpenney@longviewtransit.com,http://www.longviewtransit.com/,(903)753-2287 Ext:13,"908 Pacific Ave Suite 200, Longview, TX 75605"
"City Transit Management Company, Inc.",Citibus,Lubbock,TX,Mr. John Wilson (General Manager),jwilson@citibus.com,http://www.citibus.com/,(806)712-2001,"801 Texas Ave, Lubbock, TX 79457"
Lower Rio Grande Valley Development Council,LRGVDC,McAllen,TX,"Mr. Kenneth Jones, Jr. (Executive Director)",knjones@lrgvdc.org,http://www.lrgvdc.org/,(956)682-3481 Ext:101,"311 North 15th Street, McAllen, TX 78501"
City of Mesquite,MTED,Mesquite,TX,Mr. Ted Barron (City Manager),tbarron@ci.mesquite.tx.us,http://www.cityofmesquite.com/,(972)216-6404,"1515 N. Galloway Ave., Mesquite, TX 75185"
Midland-Odessa Urban Transit District,EZ RIDER,Odessa,TX,Mr. Edward Esparza (General Manager),eesparza@ez-rider.org,http://www.ez-rider.org/,432-561-8051,"8007 East Highway 80, Odessa, TX 79765"
Port Arthur Transit,PAT,Port Arthur,TX,Mr. Thomas Kestranek (Transit Manager),tomk@portarthur.net,http://www.portarthur.net/,(409)983-8767,"320 Dallas Avenue, Port Arthur, TX 77641"
Concho Valley Transit District,CVTD,San Angelo,TX,Mr. Robert Stephens (Director of Transportation),rob@cvcog.org,http://www.cvcog.org/,(325)944-9666 Ext:280,"2801 W Loop 306 Suite A, San Angelo, TX 76904"
VIA Metropolitan Transit,VIA,San Antonio,TX,Mr. Keith Parker (President/CEO),keith.parker@viainfo.net,http://www.viainfo.net/,(210)362-2050,"800 West Myrtle, San Antonio, TX 78212"
Hill Country Transit District,The Hop,San Saba,TX,Ms. Tama Shaw (Executive Director),cwarlick@takethehop.com,http://www.takethehop.com/,(325)372-4677,"2905 West Wallace Street, San Saba, TX 76877"
"Texoma Area Paratransit System, Inc",TAPS,Sherman,TX,Mr. Brad Underwood (Chairman Board Of Directors),bradunderwood@tapsbus.com,http://www.tapsbus.com/,(903)893-4601 Ext:101,"6104 Texoma Parkway, Sherman, TX 75090"
Fort Bend County Public Transportation,Fort Bend Transit,Sugar Land,TX,Ms. Paulette Shelton (Transportation Director),sheltonp@co.fort-bend.tx.us,http://www.fortbendcountygov.com/,(281)633-7433,"12550 Emily Court Suite 400, Sugar Land, TX 77478"
The Gulf Coast Center,Connect Transit,Texas City,TX,Mr. George Winburn (Executive Director),mikew@gcmhmr.com,http://www.gcmhmr.com/,(409)763-2373,"4352 E. F. Lowry Expressway, Texas City, TX 77591"
Golden Crescent Regional Planning Commission,VICTORIA TRANSIT,Victoria,TX,Mr. Joe Brannan (Executive Director),jbrannan@gcrpc.org,http://www.victoriatransit.org/,(361)578-1587 Ext:208,"568 Big Bend Drive, Victoria, TX 77904"
"Waco Transit System, Inc.",WTS,Waco,TX,Mr. John Hendrickson (General Manager),johnhe@ci.waco.tx.us,http://www.waco-texas.com/,(254)750-1900,"301 South 8th Street, Suite 100, Waco, TX 76701"
Ames Transit Agency,CyRide,Ames,IA,Ms. Sheri Kyras (Director of Transit),skyras@cyride.com,http://www.cyride.com/,(515)239-5566,"1700 University Blvd., Ames, IA 50010"
Bettendorf Transit System,BT,Bettendorf,IA,Mr. Decker Ploehn (City Administrator),dploehn@bettendorf.org,http://www.bettendorf.org/department/?fDD=22-0,(563)344-4000,"1609 State Street, Bettendorf, IA 52722"
Cedar Rapids Transit,CRT,Cedar Rapids,IA,Mr. Brad DeBrower (Transit Manager),b.debrower@cedar-rapids.org,http://www.cedar-rapids.org/transit/,(319)286-5560,"427 8th St NW, Cedar Rapids, IA 52405"
Coralville Transit System,CTS,Coralville,IA,Mr. Kent Ralston (Assistant Transportation Planner),kent-ralston@iowa-city.org,http://www.coralville.org/,(319)356-5253,"1512 7th St., Coralville, IA 52241"
Davenport Public Transit,CITIBUS,Davenport,IA,Mr. Michael Clark (Public Works Director),mclarke@ci.davenport.ia.us,http://www.cityofdavenportiowa.com/,(563)326-7734,"226 West Fourth Street, Davenport, IA 52801"
Des Moines Area Regional Transit Authority,DART,Des Moines,IA,Mr. Bradford Miller (General Manager),bmiller@ridedart.com,http://www.ridedart.com/,(515)283-8111,"1100 DART Way, Des Moines, IA 50309"
City of Dubuque,KeyLine,Dubuque,IA,Mr. Jon Rodocker (Transit Manager),jrodocke@cityofdubuque.org,http://www.dbq.com/,(563)589-4196,"2401 Central Avenue, Dubuque, IA 52001"
Iowa City Transit,ICT,Iowa City,IA,Mr. Kent Ralston (Assistant Transportation Planner),kent-ralston@iowa-city.org,http://www.icgov.org/,(319)356-5253,"410 East Washington Street, Iowa City, IA 52240"
University of Iowa,Cambus,Iowa City,IA,Mr. Kent Ralston (Assistant Transportation Planner),kent-ralston@iowa-city.org,http://www.uiowa.edu/~cambus/,(319)356-5253,"100 Cambus Office, Iowa City, IA 52242"
Sioux City Transit System,SCTS,Sioux City,IA,Mr. Curtis Miller (Airport / Purch / Fleet / Transit Director),cmiller@sioux-city.org,http://www.sioux-city.org/dept/index.asp?deptnum=22,(712)279-6405,"2505 Fourth Street, Sioux City, IA 51102"
Metropolitan Transit Authority of Black Hawk County,MET Transit,Waterloo,IA,Mr. Mark Little (General Manager),m.little@mettransit.org,http://www.mettransit.org/,(319)234-5714 Ext:101,"1515 Black Hawk Street, Waterloo, IA 50702"
City of Lawrence - Lawrence Transit System,,Lawrence,KS,Mr. David Corliss (City Manager),dcorliss@ci.lawrence.ks.us,http://www.lawrencetransit.org/,(785)832-3400,"933 New Hampshire Street, Lawrence, KS 66044"
Parking & Transit Department,KU,Lawrence,KS,Ms. Donna Hultine (Director),dhultine@ku.edu,http://www.parkandride.ku.edu/,785-864-7275,"University of Kansas 1501 Irving Hill Road, Lawrence, KS 66045"
"Johnson County Kansas, aka: Johnson County Transit",The JO,Olathe,KS,Ms. Alice Amrein (Director of Transportation),alice.amrein@jocogov.org,http://www.thejo.com/,(913)782-2210,"1701 West 56 Highway, Olathe, KS 66061"
Topeka Metropolitan Transit Authority,Topeka Transit - TMTA,Topeka,KS,Ms. Janlyn Nesbett-Tucker (CEO/GM),cfalldine@topekatransit.com,http://www.topekatransit.com/,(785)233-2011 Ext:101,"201 North Kansas Avenue, Topeka, KS 66603"
Wichita Transit,WT,Wichita,KS,Mr. Michael Vinson (Director of Transit),mvinson@wichita.gov,http://www.wichita.gov/,(316)325-4805,"777 East Waterman, Wichita, KS 67202"
Columbia Transit,CT,Columbia,MO,Mr. H. Watkins (City Manager),WHW@gocolumbiamo.com,http://www.gocolumbiamo.com/PublicWorks/Transportation,(573)874-6338,"701 East Broadway, Columbia, MO 65205"
City of Jefferson,JEFFTRAN,Jefferson City,MO,Mr. Steve Rasmussen (City Administrator ),rturner@jeffcitymo.org,http://www.jeffcitymo.org/transit,(573)634-6306,"320 East McCarty Street, Jefferson City, MO 65101"
Kansas City Area Transportation Authority,KCATA,Kansas City,MO,Mr. Mark Huffer (General Manager),mhuffer@kcata.org,http://www.kcata.org/,(816)346-0211,"1200 East 18th Street, Kansas City, MO 64108"
City Utilities of Springfield,The Bus,Springfield,MO,Mr. John Twitty (General Manager),john.twitty@cityutilities.net,http://www.cityutilities.net/,(417)831-8600,"Transit Services 1505 North Boonville Avenue, Springfield, MO 65803"
Missouri State University,SMSU,Springfield,MO,Mr. Gary Snavely (Director of Safety and Transp.),jgs979t@missouristate.edu,http://www.missouristate.edu/,(417)836-4441,"901 South National Avenue, Springfield, MO 65804"
St. Joseph Transit,The Ride,St. Joseph,MO,Mr. Vince Capell (City Manager),vcapell@ci.st-joseph.mo.us,http://www.stjoemo.info/publicworks/transit.cfm,(816)271-4610,"702 South 5th Street, St. Joseph, MO 64501"
Bi-State Development Agency,METRO,St. Louis,MO,Mr. Robert Baer (President and CEO),rbaer@metrostlouis.org,http://www.metrostlouis.org/,(314)982-1400 Ext:1588,"707 North First Street, St. Louis, MO 63102"
StarTran,,Lincoln,NE,Mr. Larry Worth (Transit Manager),lworth@lincoln.ne.gov,http://www.lincoln.ne.gov/,(402)441-8600,"710 J Street, Lincoln, NE 68508"
Transit Authority of Omaha,MAT,Omaha,NE,Mr. Curt Simon (Executive Director),csimon@omamat.org,http://www.metroareatransit.com/,(402)341-7560 Ext:2100,"2222 Cuming Street, Omaha, NE 68102"
Mountain Metropolitan Transit,MMT,Colorado Springs,CO,Ms. Sherre Ritenour (Transit Services Manager),sritenour@springsgov.com,http://www.springsgov.com/,(719)385-5429,"1015 Transit Drive, Colorado Springs, CO 80903"
Denver Regional Transportation District,RTD,Denver,CO,Mr. Lee Kemp (Chair Of The Board),lee.kemp@rtd-denver.com,http://www.rtd-denver.com/,(303)299-2730,"1600 Blake Street, Denver, CO 80202"
Transfort,,Fort Collins,CO,Ms. Marlys Sittner (Transfort/Dial-A-Ride General Mgr.),msittner@fcgov.com,http://www.fcgov.com/transfort,(970)416-2113,"6570 Portner Road, Fort Collins, CO 80525"
Mesa County,GVT,Grand Junction,CO,"Mr. Tom Fisher (Director, Mesa County Regional Services )",tom.fisher@mesacounty.us,http://www.mesacounty.us/,(970)244-1788,"525 S. 6th Street 2nd Floor, Grand Junction, CO 81502"
City of Greeley - Transit Services,GET,Greeley,CO,Mr. Joel Hemesath (Director of Public Works ),joel.hemesath@greeleygov.com,http://www.greeleyevanstransit.com/,(970)350-9795,"1200 A Street, Greeley, CO 80631"
City of Loveland Transit,COLT,Loveland,CO,Mr. Keith Reester (Director of Public Works),reestk@ci.loveland.co.us,http://www.cityofloveland.org/,(970)962-2520,"410 East 5th Street, Loveland, CO 80537"
Pueblo Transit System,PT,Pueblo,CO,Mr. Mickey Beyer (Interim Director of Public Works),mbeyer@pueblo.us,http://www.pueblo.us/,(719)553-2272,"350 South Grand Avenue, Pueblo, CO 81003"
Billings Metropolitan Transit,Billings MET Transit,Billings,MT,Mr. Thomas Binford (Director-Aviation and Transit),binfordt@ci.billings.mt.us,http://www.mettransit.com/,(406)657-8493,"1705 Monad Road, Billings, MT 59103"
Great Falls Transit District,GFTD,Great Falls,MT,Mr. James Helgeson (General Manager),gm@gftransit.com,http://www.gftransit.com/,(406)727-0382 Ext:303,"3905 North Star Boulevard, Great Falls, MT 59403"
Missoula Urban Transportation District,Mountain Line,Missoula,MT,Mr. Stephen Earle (General Manager),searle@mountainline.com,http://www.mountainline.com/,(406)543-8386 Ext:104,"1221 Shakespeare, Missoula, MT 59802"
Bis-Man Transit Board,CAT,Bismarck,ND,Ms. Robin Werre (Executive Director),robinw.bisman@midconetwork.com,http://www.bismantransit.com/,(701)258-6817,"3750 East Rosser Avenue, Bismarck, ND 58501"
Fargo Metropolitan Area Transit,MAT,Fargo,ND,Mr. Jim Gilmour (Planning Director),JRGilmour@ci.fargo.nd.us,http://www.ci.fargo.nd.us/,(701)241-1476,"502 Northern Pacific Avenue, Fargo, ND 58102"
Cities Area Transit,CAT,Grand Forks,ND,Mr. Dale Bergman (Transportation Superintendent),dbergman@grandforksgov.com,http://www.grandforksgov.com/bus,(701)746-2590,"867 South 48th Street, Grand Forks, ND 58206"
Rapid Transit System,,Rapid City,SD,Mr. Alan Hanks (Mayor),alan.hanks@rcgov.org,http://www.rcgov.org/,(605)394-4110,"333 Sixth Street, Rapid City, SD 57701"
Su Tran LLC dba: Sioux Falls Transit,,Sioux Falls,SD,Hon David Munson (Mayor),dmunson@siouxfalls.org,http://www.siouxfalls.org/,(605)367-8800,"500 East Sixth Street, Sioux Falls, SD 57103"
"City of Logan, dba: The Logan Transit District",LTD,Logan,UT,Mr. Todd Beutler (Transit Manager),tbeutler@cvtdbus.org,http://www.ltdbus.org/,(435)713-6968,"754 West 600 North, Logan, UT 84321"
Cache Valley Transit District,CVTD,Logan,UT,Mr. Curtis Roberts (Finance Director),croberts@cvtdbus.org,http://www.cvtdbus.org/,(435)713-6963,"754 West 600 North, Logan, UT 84321"
Utah Transit Authority,UTA,Salt Lake City,UT,Mr. John Inglish (General Manager),jinglish@rideuta.com,http://www.rideuta.com/,(801)262-5626 Ext:2130,"3600 South 700 West, Salt Lake City, UT 84130"
City of Casper,,Casper,WY,Ms. April Getchius (Director),agetchius@cityofcasperwy.com,http://www.casperareatransportation.com/,(307)235-8241,"200 N David, Casper, WY 82601"
The City of Cheyenne Transit Program,CTP,Cheyenne,WY,Mr. Joseph Dougherty (Transit Director),rjording@cheyennecity.org,http://http//www.cheyennecity.org/index.asp?nid=252,(307)637-6383,"322 West Lincolnway, Cheyenne, WY 82001"
Coconino County Transportation Services,Mountain Line/Lift,Flagstaff,AZ,Mr. Jeff Meilbeck (General Manager),jmeilbeck@naipta.az.gov,http://www.naipta.az.gov/,(928)679-8900,"2300 South Huffer Lane, Flagstaff, AZ 86001"
City of Glendale Transit,,Glendale,AZ,Mr. Jamsheed Mehta (Transportation Director),jmehta@glendaleaz.com,http://www.glendaleaz.com/,(623)930-2940,"6210 West Myrtle Avenue Building S, Glendale, AZ 85301"
"Phoenix - VPSI, Inc.",,Glendale,AZ,Mr. Jeffrey Henning (President and CEO),jeff.henning@vpsiinc.com,http://www.vpsiinc.com/,(248)597-3500,"4494 W. Peoria Ave. #105, Glendale, AZ 85302"
Peoria Transit,,Peoria,AZ,Mr. Randy Roberts (Transit Manager),randy.roberts@peoriaaz.gov,http://www.peoriaaz.gov/,(623)773-7461,"8401 West Monroe Avenue, Peoria, AZ 85345"
City of Phoenix Public Transit Department dba Valley Metro,Valley Metro,Phoenix,AZ,Ms. Debbie Cotton (Public Transit Director),debbie.cotton@phoenix.gov,http://www.valleymetro.org/,(602)534-6765,"302 North First Avenue Suite 900, Phoenix, AZ 85003"
Maricopa County Special Transportation Services,MCHSD,Phoenix,AZ,Ms. Trish Georgeff (Director),georgefft@mail.maricopa.gov,http://www.hsd.maricopa.gov/,(602)506-0066,"Maricopa County Human Services Department 234 North Central Avenue, Phoenix, AZ 85004"
"Regional Public Transportation Authority, dba: Valley Metro",RPTA,Phoenix,AZ,Mr. David Boggs (Executive Director),mtaylor@valleymetro.org,http://www.valleymetro.org/,(602)262-7433,"302 North First Avenue Number 700, Phoenix, AZ 85003"
City of Scottsdale - Scottsdale Trolley,COS,Scottsdale,AZ,Ms. Madeline Clemann (Transit Manager),mclemann@scottsdaleaz.gov,http://www.scottsdaleaz.gov/,(480)312-2732,"7447 East Indian School Road Suite 205, Scottsdale, AZ 85251"
"Sun Cities Area Transit System, Inc.",SCAT,Sun City,AZ,"Mr. Tom Perfico (President, Board of Directors)",tperfico@scatdialaride.net,http://www.scatdialaride.org/,(623)977-8363,"Sun City, AZ 85372"
Surprise Dial-A-Ride Transit System,,Surprise,AZ,"Dr. Robert Maki (Director, Transportation Dept.)",robert.maki@surpriseaz.com,http://www.surpriseaz.com/,(623)222-1720,"15832 North Hollyhock Street, Surprise, AZ 85374"
City of Tempe Transit Division - dba Valley Metro,TIM - Tempe in Motion,Tempe,AZ,Mr. Carlos de Leon (Deputy Public Works Manager),Carlos_deleon@Tempe.gov,http://www.tempe.gov/tim,(480)350-8527,"200 E. 5th Street, Tempe, AZ 85280"
City of Tucson,COT,Tucson,AZ,Mr. Jim Glock (Director),Jim.Glock@tucsonaz.gov,http://www.ci.tucson.az.us/,(520)837-6692,"149 N Stone Ave - 2nd Floor, Tucson , AZ 85726"
Yuma Metropolitan Planning Organization,YMPO,Yuma,AZ,Ms. Charlene FitzGerald (Executive Director),cfitzgerald@ympo.org,http://ympo.org/,(928)783-8911,"502 South Orange Avenue, Yuma, AZ 85364"
City of Alameda Ferry Services,,Alameda,CA,Ms. Ann Gallant (Interim City Manager),epsanche@ci.alameda.ca.us,http://www.ci.alameda.ca.us/,(510)748-4505,"c/o: City of Alameda 2263 Santa Clara Avenue, Alameda, CA 94501"
Anaheim Transportation Network,ATN,Anaheim,CA,Ms. Diana Kotler (Executive Director),dkotler@atnetwork.org,http://www.rideart.org/,714-563-5287,"1280 South Anaheim Blvd, Anaheim, CA 92805"
The Eastern Contra Costa Transit Authority,Tri Delta Transit,Antioch,CA,Ms. Jeanne Krieg (CEO),jkrieg@eccta.org,http://www.trideltatransit.com/,(925)754-6622 Ext:224,"801 Wilbur Avenue, Antioch, CA 94509"
City of Arcadia Transit,Arcadia Transit,Arcadia,CA,Mr. Donald Penman (City Manager),dpenman@ci.arcadia.ca.us,http://www.ci.arcadia.ca.us/,(626)574-5401,"240 West Huntington Drive, Arcadia, CA 91066"
Placer County Department of Public Works,PCDPW,Auburn,CA,Mr. Ken Grehm (Director of Public Works),kgrehm@placer.ca.gov,http://www.placer.ca.gov/,(530)745-7591,"3091 County Center Dr Suite 220, Auburn, CA 95603"
Golden Empire Transit District,GET,Bakersfield,CA,Mrs. Karen King (Chief Executive Officer),kking@getbus.org,http://www.getbus.org/,(661)324-9874,"1830 Golden State Avenue, Bakersfield, CA 93301"
City of Benicia,Benicia Breeze,Benicia,CA,Ms. Melissa Bryan (Transit Services Manager),melissa.bryan@ci.benicia.ca.us,http://www.ci.benicia.ca.us/,(707)746-4300,"250 East L Street, Benicia, CA 94510"
Camarillo Area Transit,CAT,Camarillo,CA,Mr. Jerry Bankston (City Manager),citymanager@ci.camarillo.ca.us,http://www.ci.camarillo.ca.us/,(805)388-5307,"c/o: City of Camarillo, Camarillo, CA 93011"
Butte County Association of Governments,BCAG,Chico,CA,Mr. Jon Clark (Executive Director),jonclark@bcag.org,http://www.bcag.org/,(530)879-2468 Ext:205,"2580 Sierra Sunrise Terrace Suite 100, Chico, CA 95928"
Chula Vista Transit,CVT,Chula Vista,CA,Mr. Andres Trujillo (Transit Manager),atrujillo@ci.chula-vista.ca.us,http://www.sdmts.com/,(619)397-6061,"1800 Maxwell Road, Chula Vista, CA 91911"
City of Commerce Municipal Buslines,CBL,Commerce,CA,Mr. Jorge Rifa (City Administrator),jorger@ci.commerce.ca.us,http://ci.commerce.ca.us/,(323)722-4805 Ext:2215,"2535 Commerce Way, Commerce, CA 90040"
Central Contra Costa Transit Authority,County Connection,Concord,CA,Mr. Rick Ramacier (General Manager),ramacier@cccta.org,http://www.cccta.org/,(925)680-2050,"2477 Arnold Industrial Way, Concord, CA 94520"
City of Corona,CCTS,Corona,CA,Mr. Kip Field (Public Works Director),brianc@ci.corona.ca.us,http://www.coronatransit.com/,(951)736-2236,"400 South Vicentia Avenue, Corona, CA 92882"
Culver City Municipal Bus Lines,Culver CityBus,Culver City,CA,Mr. Art Ida (Transportation Director ),art.ida@culvercity.org,http://www.culvercity.org/,(310)253-6545,"4343 Duquesne Avenue, Culver City, CA 90232"
Unitrans - City of Davis/ASUCD,Unitrans,Davis,CA,Mr. Geoff Straw (General Manager),gdstraw@ucdavis.edu,http://www.unitrans.com/,(530)752-6525,"One Shields Avenue 5 South Hall, Davis, CA 95616"
Imperial Valley Transit,IVT,El Centro,CA,Mr. Ralph Cordova Jr. (County Executive Officer),ralphcordova@co.imperial.ca.us,http://www.ivtransit.com/,760-482-4290,"940 Main Street, Suite 208, El Centro, CA 92243"
City of Elk Grove,etran,Elk Grove,CA,Ms. Tiffani Fink (Transit System Manager),tfink@elkgrovecity.org,http://www.e-tran.org/,(916)687-3030,"10250 Iron Rock Way Suite 200, Elk Grove, CA 95624"
City of Fairfield - Fairfield and Suisun Transit,FAST,Fairfield,CA,Mr. Sean Quinn (City Manager),squinn@ci.fairfield.ca.us,http://www.ci.fairfield.ca.us/,(707)428-7768,"Fairfield Transportation Center 2000 Cadenasso Drive, Fairfield, CA 94533"
Fresno Area Express,FAX,Fresno,CA,Mr. Kenneth Hamm (Director of Transportation),Kenneth.Hamm@fresno.gov,http://www.fresno.gov/,(559)621-1440,"2223 G Street, Fresno, CA 93706"
City of Gardena Transportation Department,GMBL,Gardena,CA,Mr. Mitchell Lansdell (City Manager),mlansdell@ci.gardena.ca.us,http://www.ci.gardena.ca.us/,(310)217-9503,"13999 S. Western Ave., Gardena, CA 90247"
Kings County Area Public Transit Agency,KART,Hanford,CA,Mr. Ron Hughes (Executive Director),Ron.Hughes@co.kings.ca.us,http://www.kartaits.com/,(559)582-3211 Ext:2696,"1340 North Drive, Hanford, CA 93230"
Victor Valley Transit Authority,VVTA,Hesperia,CA,Mr. Kevin Kane (CEO),kkane@vvta.org,http://www.vvta.org/,(760)948-4330,"11741 East Santa Fe Avenue, Hesperia, CA 92345"
Laguna Beach Municipal Transit,CLB,Laguna Beach,CA,Mr. Steve May (Director of Public Works/City Engineer),smay@lagunabeachcity.net,http://www.lagunabeachcity.net/,(949)497-0351,"505 Forest Avenue, Laguna Beach, CA 92651"
Antelope Valley Transit Authority,AVTA,Lancaster,CA,Mr. Randy Floyd (Executive Director),rfloyd@avta.com,http://www.avta.com/,(661)729-2206,"42210 6th Street West, Lancaster, CA 93534"
Livermore / Amador Valley Transit Authority,LAVTA,Livermore,CA,Mr Paul Matsuoka (Executive Director),pmatsuoka@lavta.org,http://www.wheelsbus.com/,(925)455-7564,"1362 Rutan Court Suite 100, Livermore, CA 94551"
City of Lodi - Transit Division,Grapeline,Lodi,CA,Mr. Blair King (City Manager),bking@lodi.gov,http://www.lodi.gov/transit,(209)333-6700,"221 West Pine Street, Lodi, CA 95241"
City of Lompoc - Lompoc Transit,COLT,Lompoc,CA,Mr. Richard Fernbaugh (Aviation/Transportation Administrator),r_fernbaugh@ci.lompoc.ca.us,http://www.cityoflompoc.com/,(805)875-8268,"100 Civic Center Plaza, Lompoc, CA 93438"
Long Beach Transit,LBT,Long Beach,CA,Mr. Laurence Jackson (President and General Manager),ljackson@lbtransit.com,http://www.lbtransit.com/,(562)591-8753,"1963 East Anaheim Street, Long Beach, CA 90801"
Access Services Incorporated,ASI,Los Angeles,CA,Ms. Shelly Verrinder (Executive Director),verrinder@asila.org,http://www.asila.org/,(213)270-6000,"707 Wilshire Boulevard, 9th Floor, Los Angeles, CA 90017"
City of Los Angeles Department of Transportation,LADOT,Los Angeles,CA,Mr. James Lefton (Chief of Transit),james.lefton@lacity.org,http://www.ladottransit.com/,(213)972-8408,"100 S Main St 10th Floor, Los Angeles, CA 90012"
Los Angeles County Metropolitan Transportation Authority,LACMTA,Los Angeles,CA,Mr. Arthur Leahy (Chief Executive Officer),LeahyA@metro.net,http://www.metro.net/,(213)922-6888,"One Gateway Plaza, Los Angeles, CA 90012"
LACMTA - Small Operators,LACMTA,Los Angeles,CA,Mr. Arthur Leahy (Chief Executive Officer),leahya@metro.net,http://www.metro.net/,(213)922-6888,"One Gateway Plaza, Los Angeles, CA 90012"
Southern California Regional Rail Authority,Metrolink,Los Angeles,CA,Mr. David Solow (Chief Executive Officer),solowd@scrra.net,http://www.metrolinktrains.com/,(213)452-0273,"700 South Flower Street Suite 2600, Los Angeles, CA 90017"
Yuba-Sutter Transit Authority,YSTA,Marysville,CA,Mr. Keith Martin (Transit Manager),keith_martin@sbcglobal.net,http://www.yubasuttertransit.com/,(530)634-6880 Ext:102,"2100 B Street, Marysville, CA 95901"
Merced County Transit,The Bus,Merced,CA,Mr. Jesse Brown (Executive Director),Jbrown@mcag.cog.ca.us,http://www.mercedthebus.com/,(209)723-3153,"880 Thornton Road, Merced, CA 95340"
Modesto Area Express,MAX,Modesto,CA,Mr. Nicholas Pinhey (Director of Public Works),npinhey@modestogov.com,http://www.modestoareaexpress.com/,(209)577-5213,"1010 Tenth Street, Modesto, CA 95354"
Montebello Bus Lines,MBL,Montebello,CA,Ms. Aurora Jackson (Director of Transportation),ajackson@cityofmontebello.com,http://www.cityofmontebello.com/,(323)887-4606,"400 South Taylor Avenue, Montebello, CA 90640"
Monterey-Salinas Transit,MST,Monterey,CA,Mr. Carl Sedoryk (GM/ CEO),csedoryk@mst.org,http://www.mst.org/,(831)899-2558,"One Ryan Ranch Road, Monterey, CA 93940"
Napa County Transportation Planning Agency,NCTPA,Napa,CA,Mr Paul Price (Executive Director),pprice@nctpa.net,http://www.nctpa.net/,707-259-8634,"707 Randolph Street Suite 100, Napa, CA 94559"
Norwalk Transit System,NTS,Norwalk,CA,Mr. James Parker (Director of Transportation),jparker@ci.norwalk.ca.us,http://www.ci.norwalk.ca.us/,(562)929-5533,"12700 Norwalk Boulevard, Norwalk, CA 90650"
Alameda-Contra Costa Transit District,AC Transit,Oakland,CA,Mr. Richard Fernandez (General Manager),rfernandez@actransit.org,http://www.actransit.org/,(510)891-4753,"1600 Franklin Street, Oakland, CA 94612"
San Francisco Bay Area Rapid Transit District,BART,Oakland,CA,Ms. Dorothy Dugger (General Manager),Ddugger@bart.gov,http://www.bart.gov/,(510)464-6060,"300 Lakeside Drive, Oakland, CA 94604"
North County Transit District,NCTD,Oceanside,CA,Mr. Richard Hannasch (Director of Fiscal & Support Services),rhannasch@nctd.org,http://www.gonctd.com/,(760)967-2809,"810 Mission Avenue, Oceanside, CA 92054"
Orange County Transportation Authority,OCTA,Orange,CA,Mr. Will Kempton (Chief Executive Officer),wkempton@octa.net,http://www.octa.net/,(714)560-5584,"550 South Main Street, Orange, CA 92863"
Gold Coast Transit,GCT,Oxnard,CA,Ms. Deborah Linehan (General Manager),dlinehan@goldcoasttransit.org,http://www.goldcoasttransit.org/,(805)483-3959 Ext:118,"301 E. Third St., Oxnard, CA 93030"
City of Petaluma,Petaluma Transit,Petaluma,CA,Mr Joe Rye (Transit Manager),jrye@ci.petaluma.ca.us,http://transit.cityofpetaluma.net/,707-778-4421,"555 North McDowell Blvd., Petaluma, CA 94954"
Western Contra Costa Transit Authority,WestCAT,Pinole,CA,Mr. Charles Anderson (General Manager),charlie@westcat.org,http://www.westcat.org/,(510)724-3331,"601 Walter Avenue, Pinole, CA 94564"
City of Porterville,C.O.L.T.,Porterville,CA,Mr. John Lollis (City Manager),jlollis@ci.porterville.ca.us,http://www.portervilletransit.com/,(559)782-7466,"291 North Main Street, Porterville, CA 93257"
Redding Area Bus Authority,RABA,Redding,CA,Mr. Brian Crane (Director of Transportation & Engineering),bcrane@ci.redding.ca.us,http://www.rabaride.com/,(530)225-4170,"777 Cypress Avenue, Redding, CA 96001"
City of Riverside Special Transportation,City of Riverside,Riverside,CA,"Ms. Robin Metz (Parks, Recreation, and Community Services Superintendent)",rmetz@riversideca.gov,http://www.riversideca.gov/,(951)826-2000 Ext:2050,"3900 Main Street, Riverside, CA 92522"
Riverside Transit Agency,RTA,Riverside,CA,Mr. Larry Rubio (Chief Executive Officer),lrubio@riversidetransit.com,http://www.riversidetransit.com/,(951)565-5022,"1825 Third Street, Riverside, CA 92507"
Roseville Transit,,Roseville,CA,Mr. Michael Wixon (Alternative Transportation Manager),mwixon@roseville.ca.us,http://www.roseville.ca.us/transit,(916)774-5480,"401 Vernon Street, Roseville, CA 95678"
Sacramento Regional Transit District,Sacramento RT,Sacramento,CA,Mr. Michael Wiley (General Manager),mwiley@sacrt.com,http://www.sacrt.com/,(916)321-2811,"1400 29th Street, Sacramento, CA 95812"
Omnitrans,OMNI,San Bernardino,CA,Mr. Durand Rall (CEO/General Manager),Durand.Rall@omnitrans.org,http://www.omnitrans.org/,(909)379-7112,"1700 West Fifth Street, San Bernardino, CA 92411"
Peninsula Corridor Joint Powers Board,PCJPB,San Carlos,CA,Mr Michael Scanlon (Executive Director),scanlonm@samtrans.com,http://www.caltrain.com/,(650)508-6242,"1250 San Carlos Avenue, San Carlos, CA 94070"
San Mateo County Transit District,SamTrans,San Carlos,CA,Mr. Michael Scanlon (General Manager/CEO),scanlonm@samtrans.com,http://www.samtrans.com/,(650)508-6242,"1250 San Carlos Avenue, San Carlos, CA 94070"
San Diego Association of Governments,SANDAG,San Diego,CA,Mr. Gary Gallegos (Executive Director),gga@sandag.org,http://www.sandag.org/,(619)699-1900,"401 B Street Suite 800, San Diego, CA 92101"
San Diego Metropolitan Transit System,MTS,San Diego,CA,Mr. Paul Jablonski (Chief Executive Officer),paul.jablonski@sdmts.com,http://www.sdmts.com/,619-557-4515,"1255 Imperial Avenue Suite 1000, San Diego, CA 92101"
"Golden Gate Bridge, Highway and Transportation District",GGBHTD,San Francisco,CA,Ms. Celia Kupersmith (General Manager),ckupersmith@goldengate.org,http://www.goldengate.org/,(415)923-2203,"Presidio Station, San Francisco, CA 94129"
San Francisco Municipal Railway,MUNI,San Francisco,CA,"Mr. Nathaniel Ford, Sr. (Executive Director/CEO, MTA)",Nathaniel.Ford@sfmta.com,http://www.sfmta.com/,(415)701-4720,"1 South Van Ness Ave 8th Floor, San Francisco, CA 94103"
San Francisco Paratransit,ATC,San Francisco,CA,Mr. Mike Griffus (President & CEO),mike.griffus@veoliatransportation.com,http://www.sfparatransit.com/,630-382-1120,"68 12th Street, San Francisco, CA 94103"
Santa Clara Valley Transportation Authority,VTA,San Jose,CA,Mr. Michael Burns (General Manager),michael.burns@vta.org,http://www.vta.org/,(408)321-5559,"3331 North First Street, San Jose, CA 95134"
City of San Luis Obispo,SLO Transit,San Luis Obispo,CA,"Mr. John Webster, Sr. (Transit Manager)",jwebster@slocity.org,http://www.slocity.org/,(805)781-7121,"919 Palm Street, San Luis Obispo, CA 93401"
San Luis Obispo Regional Transit Authority,SLORTA,San Luis Obispo,CA,Mr. Edward King (Regional Transit Administrator),eking@slorta.org,http://www.slorta.org/,(805)781-4465,"179 Cross Street Suite A, San Luis Obispo, CA 93401"
Santa Barbara Metropolitan Transit District,SBMTD,Santa Barbara,CA,Mrs. Sherrie Fisher (General Manager),sfisher@sbmtd.gov,http://www.sbmtd.gov/,(805)963-3364,"550 Olive Street, Santa Barbara, CA 93101"
Santa Clarita Transit,SCT,Santa Clarita,CA,Mr. Darren Hernandez (Interim Transit Manager),dhernandez@santa-clarita.com,http://www.santa-clarita.com/,(661)295-6301,"28250 Constellation Road, Santa Clarita, CA 91355"
Santa Cruz Metropolitan Transit District,SCMTD,Santa Cruz,CA,Mr. Leslie White (General Manager),lwhite@scmtd.com,http://www.scmtd.com/,(831)426-6080,"370 Encinal Suite 100, Santa Cruz, CA 95060"
Santa Maria Area Transit,SMAT,Santa Maria,CA,Mr. Tim Ness (City Manager),tness@ci.santa-maria.ca.us,http://www.ci.santa-maria.ca.us/3075.html,(805)925-0951 Ext:200,"110 South Pine Street Suite 101, Santa Maria, CA 93458"
Santa Monica's Big Blue Bus,Big Blue Bus,Santa Monica,CA,Mr. P. Lamont Ewell (City Manager),lamont.ewell@smgov.net,http://www.bigbluebus.com/,(310)458-8411 Ext:8301,"1660 Seventh Street, Santa Monica, CA 90401"
City of Santa Rosa,Santa Rosa CityBus,Santa Rosa,CA,"Mr. Robert Dunlavey (Director, Transit and Parking)",rdunlavey@srcity.org,http://ci.santa-rosa.ca.us/,(707)543-3325,"100 Santa Rosa Ave Room 6, Santa Rosa, CA 95402"
Sonoma County Transit,,Santa Rosa,CA,Mr. Bryan Albee (Transit Systems Manager),bryan@sctransit.com,http://www.sctransit.com/,(707)585-7516 Ext:204,"355 West Robles Avenue, Santa Rosa, CA 95407"
Simi Valley Transit,SVT,Simi Valley,CA,Mr. Mike Sedell (City Manager),msedell@simivalley.org,http://www.simivalley.org/,(805)583-6701,"2929 Tapo Canyon Road, Simi Valley, CA 93063"
Altamont Commuter Express,ACE,Stockton,CA,Ms. Stacey Mortensen (Executive Director),stacey@acerail.com,http://www.acerail.com/,(209)944-6221,"949 East Channel Street, Stockton, CA 95202"
San Joaquin Regional Transit District,RTD,Stockton,CA,Ms. Donna DeMartino (General Manager),ddemartino@sanjoaquinrtd.com,http://www.sanjoaquinrtd.com/,(209)948-5566 Ext:613,"Stockton, CA 95201"
Thousand Oaks Transit,TOT,Thousand Oaks,CA,Mr. Scott Mitnick (City Manager),city@toaks.org,http://www.ci.thousand-oaks.ca.us/,(805)449-2100,"c/o: City of Thousand Oaks 2100 Thousand Oak Boulevard, Thousand Oaks, CA 91362"
SunLine Transit Agency,SunLine,Thousand Palms,CA,Mr. Charles Oglesby (General Manager),moglesby@sunline.org,http://www.sunline.org/,(760)343-3456 Ext:100,"32-505 Harry Oliver Trail, Thousand Palms, CA 92276"
Torrance Transit System,TTS,Torrance,CA,Ms. Kim Turner (Transit Director),kturner@torranceca.gov,http://www.torrnet.com/92.htm,(310)618-6245,"20500 Madrona Avenue, Torrance, CA 90503"
City of Turlock,BLAST and DART,Turlock,CA,Mr. Roy Wasden (City Manager),RWasden@turlock.ca.us,http://www.ci.turlock.ca.us/,(209)668-5540 Ext:1101,"156 South Broadway, Suite 150, Turlock, CA 95380"
City of Union City Transit Division,UCT,Union City,CA,Ms. Mintze Cheng (Director of Public Works),mintzec@ci.union-city.ca.us,http://www.uctransit.org/,(510)675-5308,"34009 Alvarado-Niles Road, Union City, CA 94587"
City of Vallejo Transportation Program,"Vallejo Transit, Baylink",Vallejo,CA,Ms. Crystal Odum Ford (Transportation Superintendent),codumford@ci.vallejo.ca.us,http://www.vallejotransit.com/,(707)648-5241,"555 Santa Clara Street, Vallejo, CA 94590"
Ventura Intercity Service Transit Authority,VISTA,Ventura,CA,Mr. Darren Kettle (Executive Director),dkettle@goventura.org,http://www.goventura.org/,(805)642-1591 Ext:123,"950 County Square Drive Suite 207, Ventura, CA 93003"
City of Visalia - Visalia City Coach,VCC,Visalia,CA,Mr. Monty Cox (Transit Manager),transit@ci.visalia.ca.us,http://www.ci.visalia.ca.us/,(559)713-4100,"425 East Oak Avenue, Suite 101, Visalia, CA 93291"
Foothill Transit,,West Covina,CA,Mr. Doran Barnes (Executive Director),dbarnes@foothilltransit.org,http://www.foothilltransit.org/,(626)931-7200,"100 South Vincent Avenue Suite 200, West Covina, CA 91790"
Yolo County Transportation District,YoloBus,Woodland,CA,Mr. Terry Bassett (Executive Director),tbassett@yctd.org,http://www.yolobus.com/,(530)661-0816,"350 Industrial Way, Woodland, CA 95776"
City and County of Honolulu Department of Transportation Services,DTS,Honolulu,HI,Mr. Wayne Yoshioka (Director-Department of Transportation Services),ksaiki@honolulu.gov,http://www.thebus.org/,(808)768-8301,"650 South King Street Third Floor, Honolulu, HI 96813"
"Honolulu - VPSI, Inc.",,Honolulu,HI,Mr. Jeffrey Henning (President and CEO),jeff.henning@vpsiinc.com,http://www.vpsiinc.com/,(248)597-3500,"711 Kapiolani Boulevard Suite 985, Honolulu, HI 96813"
Regional Transportation Commission of Southern Nevada,RTC,Las Vegas,NV,Mr. Jacob Snow (General Manager),snowj@rtcsnv.com,http://www.rtcsouthernnevada.com/,(702)676-1500,"600 South Grand Central Parkway Suite 350, Las Vegas, NV 89106"
Las Vegas Monorail Company,LVMC,Las Vegas,NV,Mr Curtis Myles III (President and CEO),curtis@lvmonorail.com,http://www.lvmonorail.com/,(702)699-8200,"3960 Howard Hughes Parkway Suite 750, Las Vegas, NV 89169"
Regional Transportation Commission of Washoe County,RTC,Reno,NV,Mr. Lee Gibson (Executive Director),lgibson@rtcwashoe.com,http://www.rtcwashoe.com/,(775)348-0400,"2050 Villanova Drive, Reno, NV 89520"
